city,latitude,longitude,cityFIPS7,county,countyPrimary_igfi,countyPrimary,countyFIPS5,stateName,type
Ackley,42.555534,-93.0529775,1900190,Franklin,,,19069,Iowa,
Akron,42.8288818,-96.5594773,1900775,Plymouth,x,,19149,Iowa,
Bolan,43.371906,-93.1193681,1907255,Worth,x,,19195,Iowa,CDP
Wapello,41.1814193,-91.1854273,1982200,Louisa,x,,19115,Iowa,
Washburn,42.4116556,-92.2674061,1982290,Black Hawk,x,,19013,Iowa,CDP
Washington,41.3014077,-91.6916417,1982335,Washington,x,,19183,Iowa,
Washta,42.5755429,-95.7175088,1982380,Cherokee,x,,19035,Iowa,
Waterloo,42.492786,-92.3425775,1982425,Black Hawk,x,,19013,Iowa,
Waterville,43.2077573,-91.297633,1982470,Allamakee,x,,19005,Iowa,
Watkins,41.8911137,-91.9862916,1982515,Benton,x,,19011,Iowa,CDP
Waucoma,43.056086,-92.0332254,1982650,Fayette,x,,19065,Iowa,
Waukee,41.6119903,-93.8855768,1982695,Dallas,x,,19049,Iowa,
Waukon,43.2694208,-91.475695,1982740,Allamakee,x,,19005,Iowa,
Bonaparte,40.6980874,-91.8032228,1907345,Van Buren,x,,19177,Iowa,
Waverly,42.7272032,-92.4668511,1982875,Bremer,x,,19017,Iowa,
Wayland,41.1472434,-91.6607207,1982965,Henry,x,,19087,Iowa,
Webb,42.9485835,-95.0119338,1983010,Clay,x,,19041,Iowa,
Webster,41.4383427,-92.1690689,1983055,Keokuk,x,,19107,Iowa,
Webster City,42.4694321,-93.8159149,1983145,Hamilton,x,,19079,Iowa,
Weldon,40.8974992,-93.7349421,1983190,Decatur,x,,19053,Iowa,
Wellman,41.4641806,-91.8382273,1983280,Washington,x,,19183,Iowa,
Wellsburg,42.4328011,-92.9250864,1983325,Grundy,x,,19075,Iowa,
Welton,41.9080812,-90.5954147,1983370,Clinton,x,,19045,Iowa,
Wesley,43.0886148,-93.9931467,1983415,Kossuth,x,,19109,Iowa,
Bondurant,41.7019329,-93.4607681,1907390,Polk,x,,19153,Iowa,
West Amana,41.808061,-91.9637905,1983505,Iowa,x,,19095,Iowa,CDP
West Bend,42.9600447,-94.4450576,1983550,Kossuth,,,19109,Iowa,
West Bend,42.9600447,-94.4450576,1983550,Palo Alto,x,x,19147,Iowa,
West Branch,41.6714086,-91.3465521,1983595,Cedar,x,x,19031,Iowa,
West Branch,41.6714086,-91.3465521,1983595,Johnson,,,19103,Iowa,
West Burlington,40.8250386,-91.1565357,1983685,Des Moines,x,,19057,Iowa,
West Chester,41.3389036,-91.8176711,1983775,Washington,x,,19183,Iowa,
West Des Moines,41.5772115,-93.711332,1983910,Dallas,,,19049,Iowa,
West Des Moines,41.5772115,-93.711332,1983910,Polk,x,x,19153,Iowa,
West Liberty,41.5700231,-91.2637695,1984315,Muscatine,x,,19139,Iowa,
Boone,42.0597047,-93.8802273,1907480,Boone,x,,19015,Iowa,
West Okoboji,43.3532972,-95.1624963,1984450,Dickinson,x,,19059,Iowa,
Weston,41.340833,-95.740833,1984495,Pottawattamie,x,,19155,Iowa,CDP
West Point,40.7167039,-91.4501542,1984585,Lee,x,,19111,Iowa,
West Union,42.9627564,-91.8082167,1984765,Fayette,x,,19065,Iowa,
Westfield,42.7562147,-96.6039438,1984090,Plymouth,x,,19149,Iowa,
Westgate,42.7699822,-91.9962845,1984180,Fayette,x,,19065,Iowa,
Westphalia,41.7197101,-95.3947221,1984540,Shelby,x,,19165,Iowa,
Westside,42.0760967,-95.0988811,1984630,Crawford,x,,19047,Iowa,
Westwood,40.9655832,-91.6237738,1984835,Henry,x,,19087,Iowa,
What Cheer,41.401397,-92.3546288,1984900,Keokuk,x,,19107,Iowa,
Bouton,41.8513741,-94.0091208,1907660,Dallas,x,,19049,Iowa,
Wheatland,41.8316906,-90.8382014,1984945,Clinton,x,,19045,Iowa,
Whiting,42.1269338,-96.1508521,1985215,Monona,x,,19133,Iowa,
Whittemore,43.0634809,-94.4221252,1985260,Kossuth,x,,19109,Iowa,
Whitten,42.2608178,-93.0054795,1985305,Hardin,x,,19083,Iowa,
Willey,41.9791526,-94.8222064,1985710,Carroll,x,,19027,Iowa,
Williams,42.489423,-93.5446544,1985800,Hamilton,x,,19079,Iowa,
Williamsburg,41.6611187,-92.0090673,1985845,Iowa,x,,19095,Iowa,
Williamson,41.0877764,-93.2549305,1985935,Lucas,x,,19117,Iowa,
Wilton,41.5889154,-91.0168179,1986070,Cedar,,,19031,Iowa,
Wilton,41.5889154,-91.0168179,1986070,Muscatine,x,x,19139,Iowa,
Boxholm,42.1758111,-94.106069,1907750,Boone,x,,19015,Iowa,
Windsor Heights,41.6038268,-93.7105118,1986250,Polk,x,,19153,Iowa,
Winfield,41.123083,-91.4412683,1986385,Henry,x,,19087,Iowa,
Winterset,41.3308237,-94.0138393,1986520,Madison,x,,19121,Iowa,
Winthrop,42.4733189,-91.7343327,1986565,Buchanan,x,,19019,Iowa,
Wiota,41.4024223,-94.8885302,1986610,Cass,x,,19029,Iowa,
Woden,43.2330157,-93.9091158,1986700,Hancock,x,,19081,Iowa,
Woodbine,41.7340073,-95.7074104,1986835,Harrison,x,,19085,Iowa,
Woodburn,41.0119428,-93.5991047,1986880,Clarke,x,,19039,Iowa,
Woodward,41.857276,-93.9222218,1986970,Dallas,x,,19049,Iowa,
Woolstock,42.5648713,-93.8427532,1987015,Wright,x,,19197,Iowa,
Boyden,43.1910906,-96.005853,1907840,Sioux,x,,19167,Iowa,
Worthington,42.3963877,-91.1198617,1987060,Dubuque,x,,19061,Iowa,
Wyoming,42.0591801,-91.0073701,1987240,Jones,x,,19105,Iowa,
Yale,41.7766528,-94.3580219,1987285,Guthrie,x,,19077,Iowa,
Yetter,42.3160934,-94.8460959,1987375,Calhoun,x,,19025,Iowa,
Yorktown,40.7333264,-95.1569266,1987420,Page,x,,19145,Iowa,
Zearing,42.1610971,-93.2971505,1987555,Story,x,,19169,Iowa,
Zwingle,42.2977891,-90.6876307,1987690,Dubuque,x,x,19061,Iowa,
Zwingle,42.2977891,-90.6876307,1987690,Jackson,,,19097,Iowa,
Burnside,42.35,-94.11,1909595,Webster,,x,19187,Iowa,unincorporated community
Troy Mills,42.29,-91.68,1979005,Linn,,x,19113,Iowa,unincorporated community
Braddyville,40.5788801,-95.0299764,1907930,Page,x,,19145,Iowa,
Bradford,42.6330321,-93.2449247,1908020,Franklin,x,,19069,Iowa,CDP
Bradgate,42.8030275,-94.4180271,1908065,Humboldt,x,,19091,Iowa,
Albert City,42.7778617,-94.9497833,1900865,Buena Vista,x,,19021,Iowa,
Brandon,42.3144359,-92.0021228,1908155,Buchanan,x,,19019,Iowa,
Brayton,41.5444325,-94.9241522,1908200,Audubon,x,,19009,Iowa,
Breda,42.1816509,-94.9769338,1908290,Carroll,x,,19027,Iowa,
Bridgewater,41.2449872,-94.6688623,1908425,Adair,x,,19001,Iowa,
Brighton,41.1747394,-91.8196149,1908470,Washington,x,,19183,Iowa,
Bristow,42.7738635,-92.9074177,1908560,Butler,x,,19023,Iowa,
Britt,43.0977399,-93.8018875,1908605,Hancock,x,,19081,Iowa,
Bronson,42.4108256,-96.2139129,1908650,Woodbury,x,,19193,Iowa,
Brooklyn,41.7315717,-92.4453638,1908695,Poweshiek,x,,19157,Iowa,
Brunsville,42.8097123,-96.2691912,1908875,Plymouth,x,,19149,Iowa,
Albia,41.0300078,-92.811307,1900910,Monroe,x,,19135,Iowa,
Buck Grove,41.9180436,-95.3961102,1909145,Crawford,x,,19047,Iowa,
Buckeye,42.4173398,-93.3756168,1909100,Hardin,x,,19083,Iowa,
Buffalo Center,43.3857909,-93.9466193,1909280,Winnebago,x,,19189,Iowa,
Buffalo,41.4555873,-90.7209746,1909235,Scott,x,,19163,Iowa,
Burchinal,43.0652402,-93.2782599,1909415,Cerro Gordo,x,,19033,Iowa,CDP
Burlington,40.8076529,-91.1128901,1909550,Des Moines,x,,19057,Iowa,
Burr Oak,43.458857,-91.8654332,1909640,Winneshiek,x,,19191,Iowa,CDP
Burt,43.1971854,-94.217741,1909685,Kossuth,x,,19109,Iowa,
Bussey,41.2066696,-92.8840881,1909730,Marion,x,,19125,Iowa,
Calamus,41.8258585,-90.7581987,1909820,Clinton,x,,19045,Iowa,
Albion,42.1123909,-92.9900403,1900955,Marshall,x,,19127,Iowa,
California Junction,41.55938,-95.99678,1909910,Harrison,x,,19085,Iowa,CDP
Callender,42.3616978,-94.2952865,1909955,Webster,x,,19187,Iowa,
Calmar,43.1835847,-91.8640482,1910045,Winneshiek,x,,19191,Iowa,
Calumet,42.9463676,-95.5500069,1910090,O'Brien,x,,19141,Iowa,
Camanche,41.7853085,-90.2529064,1910135,Clinton,x,,19045,Iowa,
Cambridge,41.8983187,-93.5291019,1910225,Story,x,,19169,Iowa,
Cantril,40.6441959,-92.069899,1910450,Van Buren,x,,19177,Iowa,
Carbon,41.0499871,-94.8233111,1910585,Adams,x,,19003,Iowa,
Carlisle,41.4986013,-93.4835466,1910765,Polk,,,19153,Iowa,
Carlisle,41.4986013,-93.4835466,1910765,Warren,x,x,19181,Iowa,
Alburnett,42.1483285,-91.6185065,1901000,Linn,x,,19113,Iowa,
Carpenter,43.4149647,-93.0149196,1911035,Mitchell,x,,19131,Iowa,
Carroll,42.0655986,-94.8672793,1911080,Carroll,x,,19027,Iowa,
Carson,41.2366607,-95.4180561,1911170,Pottawattamie,x,,19155,Iowa,
Carter Lake,41.2905534,-95.9180689,1911215,Pottawattamie,x,,19155,Iowa,
Cascade,42.2986159,-91.0148618,1911305,Dubuque,x,x,19061,Iowa,
Cascade,42.2986159,-91.0148618,1911305,Jones,,,19105,Iowa,
Casey,41.5047095,-94.5183037,1911395,Adair,,,19001,Iowa,
Casey,41.5047095,-94.5183037,1911395,Guthrie,x,x,19077,Iowa,
Castalia,43.1118201,-91.6763612,1911485,Winneshiek,x,,19191,Iowa,
Castana,42.0744332,-95.9086206,1911530,Monona,x,,19133,Iowa,
Alden,42.5202571,-93.3760389,1901045,Hardin,x,,19083,Iowa,
Cedar Falls,42.5348993,-92.4453161,1911755,Black Hawk,x,,19013,Iowa,
Cedar Rapids,41.9778795,-91.6656232,1912000,Linn,x,,19113,Iowa,
Center Junction,42.1161202,-91.0870939,1912225,Jones,x,,19105,Iowa,unincorporated community
Center Point,42.1908265,-91.7851772,1912270,Linn,x,,19113,Iowa,
Centerville,40.7290565,-92.8738196,1912315,Appanoose,x,,19007,Iowa,
Central City,42.2038829,-91.5240561,1912495,Linn,x,,19113,Iowa,
Centralia,42.4722244,-90.8370738,1912630,Dubuque,x,,19061,Iowa,
Chapin,42.8335814,-93.2221464,1912675,Franklin,x,,19069,Iowa,CDP
Chariton,41.0199996,-93.3140985,1912720,Lucas,x,,19117,Iowa,
Charles City,43.0663612,-92.6724112,1912765,Floyd,x,,19067,Iowa,
Alexander,42.8058039,-93.4765943,1901090,Franklin,x,,19069,Iowa,
Charlotte,41.9603038,-90.4651329,1912855,Clinton,x,,19045,Iowa,
Charter Oak,42.0683221,-95.5916693,1912900,Crawford,x,,19047,Iowa,
Chatsworth,42.9162418,-96.5164815,1912945,Sioux,x,,19167,Iowa,
Chelsea,41.9203126,-92.3945866,1912990,Tama,x,,19171,Iowa,
Cherokee,42.7496413,-95.5515431,1913080,Cherokee,x,,19035,Iowa,
Chester,43.4910768,-92.360449,1913125,Howard,x,,19089,Iowa,
Chillicothe,41.086327,-92.5287502,1913215,Wapello,x,,19179,Iowa,
Churdan,42.1519262,-94.4744169,1913350,Greene,x,,19073,Iowa,
Cincinnati,40.6308482,-92.9246459,1913395,Appanoose,x,,19007,Iowa,
Clare,42.5888614,-94.3460793,1913485,Webster,x,,19187,Iowa,
Algona,43.0699663,-94.233019,1901135,Kossuth,x,,19109,Iowa,
Clarence,41.888907,-91.0565423,1913530,Cedar,x,,19031,Iowa,
Clarinda,40.7419352,-95.038313,1913575,Page,x,,19145,Iowa,
Clarion,42.7316387,-93.732992,1913620,Wright,x,,19197,Iowa,
Clarksville,42.7847,-92.6676907,1913755,Butler,x,,19023,Iowa,
Clayton,42.9038759,-91.1473518,1913845,Clayton,x,,19043,Iowa,
Clear Lake,43.1435564,-93.3788108,1914025,Cerro Gordo,x,,19033,Iowa,
Clearfield,40.8008223,-94.4757947,1913980,Ringgold,,,19159,Iowa,
Clearfield,40.8008223,-94.4757947,1913980,Taylor,x,x,19173,Iowa,
Cleghorn,42.8122037,-95.7133746,1914115,Cherokee,x,,19035,Iowa,
Clemons,42.1138755,-93.1560365,1914160,Marshall,x,,19127,Iowa,
Alleman,41.8199875,-93.611607,1901180,Polk,x,,19153,Iowa,
Clermont,43.0035912,-91.652374,1914250,Fayette,x,,19065,Iowa,
Clinton,41.8444735,-90.1887379,1914430,Clinton,x,,19045,Iowa,
Clio,40.6350076,-93.4513276,1914475,Wayne,x,,19185,Iowa,
Clive,41.6060873,-93.77236,1914520,Dallas,,,19049,Iowa,
Clive,41.6060873,-93.77236,1914520,Polk,x,x,19153,Iowa,
Clutier,42.0794366,-92.4021334,1914655,Tama,x,,19171,Iowa,
Coalville,42.4452485,-94.1257916,1914835,Webster,x,,19187,Iowa,CDP
Coburg,40.9156997,-95.2655543,1914880,Montgomery,x,,19137,Iowa,
Coggon,42.2808248,-91.5304412,1914925,Linn,x,,19113,Iowa,
Coin,40.6544393,-95.2302597,1914970,Page,x,,19145,Iowa,
Allerton,40.7063539,-93.365383,1901270,Washington,x,,19185,Iowa,
Colesburg,42.6394355,-91.2020781,1915015,Delaware,x,,19055,Iowa,
Colfax,41.6770762,-93.2451249,1915060,Jasper,x,,19099,Iowa,
College Springs,40.6191595,-95.1208123,1915105,Page,x,,19145,Iowa,
Collins,41.9027657,-93.3063179,1915195,Story,x,,19169,Iowa,
Colo,42.0177653,-93.3152072,1915240,Story,x,,19169,Iowa,
Columbus City,41.2586363,-91.3743221,1915375,Louisa,x,,19115,Iowa,
Columbus Junction,41.2786364,-91.3598775,1915420,Louisa,x,,19115,Iowa,
Colwell,43.1558053,-92.5940738,1915465,Floyd,x,,19067,Iowa,
Conesville,41.3819687,-91.3498791,1915645,Muscatine,x,,19139,Iowa,
Conrad,42.2247077,-92.8746455,1915825,Grundy,x,,19075,Iowa,
Ackley,42.555534,-93.0529775,1900190,Hardin,x,x,19083,Iowa,
Allison,42.7535847,-92.7952244,1901315,Butler,x,,19023,Iowa,
Conroy,41.7298609,-91.9967024,1915870,Iowa,x,,19095,Iowa,CDP
Conway,40.7485991,-94.6188551,1915960,Taylor,x,,19173,Iowa,
Coon Rapids,41.8708192,-94.6774786,1916050,Carroll,x,x,19027,Iowa,
Coon Rapids,41.8708192,-94.6774786,1916050,Guthrie,,,19077,Iowa,
Coppock,41.1622416,-91.7112781,1916140,Henry,x,x,19087,Iowa,
Coppock,41.1622416,-91.7112781,1916140,Jefferson,,,19101,Iowa,
Coppock,41.1622416,-91.7112781,1916140,Washington,,,19183,Iowa,
Coralville,41.6822756,-91.5960643,1916230,Johnson,x,,19103,Iowa,
Corley,41.577316,-95.328552,1916320,Shelby,x,,19165,Iowa,CDP
Corning,40.9869306,-94.7335843,1916500,Adams,x,,19003,Iowa,
Alta,42.6749812,-95.3041656,1901495,Buena Vista,x,,19021,Iowa,
Correctionville,42.4749887,-95.785565,1916545,Woodbury,x,,19193,Iowa,
Corwith,42.9927444,-93.9574516,1916590,Hancock,x,,19081,Iowa,
Corydon,40.7569499,-93.3188229,1916635,Wayne,x,,19185,Iowa,
Cotter,41.2919675,-91.4615474,1916725,Louisa,x,,19115,Iowa,
Coulter,42.7338336,-93.3698768,1916815,Franklin,x,,19069,Iowa,
Council Bluffs,41.2619444,-95.8608333,1916860,Pottawattamie,x,,19155,Iowa,
Craig,42.8958224,-96.3097474,1916950,Plymouth,x,,19149,Iowa,
Crawfordsville,41.2139905,-91.5387401,1917130,Washington,x,,19183,Iowa,
Crescent,41.364996,-95.8580668,1917175,Pottawattamie,x,,19155,Iowa,
Cresco,43.3813568,-92.1140547,1917220,Howard,x,,19089,Iowa,
Alta Vista,43.1985819,-92.4171216,1901540,Chickasaw,x,,19037,Iowa,
Creston,41.0586002,-94.3613474,1917265,Union,x,,19175,Iowa,
Cromwell,41.0394328,-94.4619067,1917490,Union,x,,19175,Iowa,
Crystal Lake,43.2232917,-93.7924434,1917670,Hancock,x,,19081,Iowa,
Cumberland,41.2741551,-94.8702606,1917760,Cass,x,,19029,Iowa,
Cumming,41.4833235,-93.7624442,1917850,Warren,x,,19181,Iowa,
Curlew,42.9787614,-94.7368076,1917895,Palo Alton,x,,19147,Iowa,
Cushing,42.4647099,-95.6750061,1917940,Woodbury,x,,19193,Iowa,
Cylinder,43.0886601,-94.5514827,1917985,Palo Alton,x,,19147,Iowa,
Dakota City,42.7221935,-94.1971836,1918075,Humboldt,x,,19091,Iowa,
Dallas Center,41.6843456,-93.9611859,1918255,Dallas,x,,19049,Iowa,
Alton,42.9874869,-96.0105735,1901585,Sioux,x,,19167,Iowa,
Dana,42.1072857,-94.2389006,1918345,Greene,x,,19073,Iowa,
Danbury,42.2341562,-95.7222265,1918390,Woodbury,x,,19193,Iowa,
Danville,40.8643403,-91.3146139,1918435,Des Moines,x,,19057,Iowa,
Davenport,41.5236437,-90.5776367,1919000,Scott,x,,19163,Iowa,
Davis City,40.6391684,-93.8116131,1919090,Decatur,x,,19053,Iowa,
Dawson,41.8426501,-94.2221108,1919135,Dallas,x,,19049,Iowa,
Dayton,42.2613645,-94.0685672,1919180,Webster,x,,19187,Iowa,
De Soto,41.5315745,-94.0077785,1921045,Dallas,x,,19049,Iowa,
De Witt,41.8239952,-90.5389662,1921180,Clinton,x,,19045,Iowa,
Decatur City,40.7419443,-93.8338346,1919360,Decatur,x,,19053,Iowa,
Altoona,41.6435514,-93.4750836,1901630,Polk,x,,19153,Iowa,
Decorah,43.3033056,-91.7857092,1919405,Winneshiek,x,,19191,Iowa,
Dedham,41.9061833,-94.8222153,1919450,Carroll,x,,19027,Iowa,
Deep River,41.5802811,-92.3749066,1919495,Poweshiek,x,,19157,Iowa,
Defiance,41.8249876,-95.3386094,1919585,Shelby,x,,19165,Iowa,
Delaware,42.4752682,-91.3454214,1919630,Delaware,x,,19055,Iowa,
Delhi,42.4297143,-91.3309789,1919675,Delaware,x,,19055,Iowa,
Delmar,42.0022453,-90.6070804,1919720,Clinton,x,,19045,Iowa,
Deloit,42.0962471,-95.3151231,1919765,Crawford,x,,19047,Iowa,
Delphos,40.6636026,-94.3394014,1919810,Ringgold,x,,19159,Iowa,
Delta,41.322788,-92.3301841,1919855,Keokuk,x,,19107,Iowa,
Alvord,43.3420659,-96.3022407,1901675,Lyon,x,,19119,Iowa,
Denison,42.024988,-95.3588867,1919945,Crawford,x,,19047,Iowa,
Denmark,40.7417052,-91.3373735,1919990,Lee,x,,19111,Iowa,CDP
Denver,42.6713718,-92.3374045,1920035,Bremer,x,,19017,Iowa,
Derby,40.931668,-93.4563244,1920125,Lucas,x,,19117,Iowa,
Des Moines,41.6005448,-93.6091064,1921000,Polk,x,,19153,Iowa,
Dexter,41.5183216,-94.2263482,1921225,Dallas,x,,19049,Iowa,
Diagonal,40.8094349,-94.3421793,1921270,Ringgold,x,,19159,Iowa,
Diamonhead Lake,41.5519057,-94.2570505,1921320,Guthrie,x,,19077,Iowa,CDP
Dickens,43.1313557,-95.0236013,1921360,Clay,x,,19041,Iowa,
Dike,42.4641498,-92.6282497,1921405,Grundy,x,,19075,Iowa,
Amana,41.8025421,-91.8781829,1901720,Iowa,x,,19095,Iowa,CDP
Dixon,41.7428049,-90.7823673,1921540,Scott,x,,19163,Iowa,
Dolliver,43.4653322,-94.615572,1921675,Emmet,x,,19063,Iowa,
Donahue,41.6947513,-90.675419,1921720,Scott,x,,19163,Iowa,
Donnellson,40.6428152,-91.5646028,1921810,Lee,x,,19111,Iowa,
Doon,43.2794231,-96.2328025,1921900,Lyon,x,,19119,Iowa,
Douds,40.8394673,-92.0865655,1922035,Van Buren,x,,19177,Iowa,CDP
Dougherty,42.9221925,-93.0421421,1922080,Cerro Gordo,x,,19033,Iowa,
Dow City,41.9288774,-95.4938899,1922215,Crawford,x,,19047,Iowa,
Dows,42.656564,-93.5010558,1922305,Franklin,,,19069,Iowa,
Dows,42.656564,-93.5010558,1922305,Wright,x,x,19197,Iowa,
Ames,42.0307812,-93.6319131,1901855,Story,x,,19169,Iowa,
Drakesville,40.7983533,-92.4815754,1922350,Davis,x,,19051,Iowa,
Dubuque,42.5005583,-90.6645718,1922395,Dubuque,x,,19061,Iowa,
Dumont,42.748585,-92.9724184,1922620,Butler,x,,19023,Iowa,
Duncan,43.1046831,-93.7113274,1922710,Hancock,x,,19081,Iowa,CDP
Duncombe,42.4703633,-93.9932858,1922755,Webster,x,,19187,Iowa,
Dundee,42.5791517,-91.5465384,1922800,Delaware,x,,19055,Iowa,
Dunkerton,42.5699952,-92.1609371,1922845,Black Hawk,x,,19013,Iowa,
Dunlap,41.8543292,-95.6019662,1922890,Harrison,x,,19085,Iowa,
Durango,42.5602775,-90.7756829,1922935,Dubuque,x,,19061,Iowa,
Durant,41.5997498,-90.9107037,1922980,Cedar,x,x,19031,Iowa,
Anamosa,42.1083371,-91.2851594,1901990,Jones,x,,19105,Iowa,
Durant,41.5997498,-90.9107037,1922980,Muscatine,,,19139,Iowa,
Durant,41.5997498,-90.9107037,1922980,Scott,,,19163,Iowa,
Dyersville,42.4836415,-91.1140899,1923115,Delaware,,,19055,Iowa,
Dyersville,42.4836415,-91.1140899,1923115,Dubuque,x,x,19061,Iowa,
Dysart,42.171659,-92.3062978,1923160,Tama,x,,19171,Iowa,
Eagle Grove,42.6641396,-93.9044473,1923250,Wright,x,,19197,Iowa,
Earlham,41.4915674,-94.1229834,1923340,Madison,x,,19121,Iowa,
Earling,41.7765693,-95.4176808,1923385,Shelby,x,,19165,Iowa,
Earlville,42.4808256,-91.2709737,1923430,Delaware,x,,19055,Iowa,
Early,42.4613706,-95.1519373,1923475,Sac,x,,19161,Iowa,
Anderson,40.801389,-95.603889,1902035,Fremont,x,,19071,Iowa,CDP
East Amana,41.8091737,-91.851011,1923520,Iowa,x,,19095,Iowa,CDP
East Peru,41.2269364,-93.926336,1923790,Madison,x,,19121,Iowa,
Eddyville,41.1605646,-92.6313031,1923970,Mahaska,,,19123,Iowa,
Eddyville,41.1605646,-92.6313031,1923970,Monroe,,,19135,Iowa,
Eddyville,41.1605646,-92.6313031,1923970,Wapello,x,x,19179,Iowa,
Edgewood,42.6444313,-91.4012515,1924060,Clayton,,,19043,Iowa,
Edgewood,42.6444313,-91.4012515,1924060,Delaware,x,x,19055,Iowa,
Elberon,42.0061054,-92.3168534,1924375,Tama,x,,19171,Iowa,
Eldon,40.9186301,-92.2229585,1924420,Wapello,x,,19179,Iowa,
Eldora,42.3680382,-93.1057576,1924465,Hardin,x,,19083,Iowa,
Ackworth,41.3669372,-93.4727131,1900235,Warren,x,,19181,Iowa,
Andover,41.9791933,-90.2517961,1902080,Clinton,x,,19045,Iowa,
Eldridge,41.6580864,-90.5845822,1924600,Scott,x,,19163,Iowa,
Elgin,42.9574811,-91.6307065,1924645,Fayette,x,,19065,Iowa,
Elk Horn,41.591655,-95.0599904,1924780,Shelby,x,,19165,Iowa,
Elk Run Heights,42.4669324,-92.256572,1924870,Black Hawk,x,,19013,Iowa,
Elkader,42.8538739,-91.4054159,1924690,Clayton,x,,19043,Iowa,
Elkhart,41.7916546,-93.5221591,1924735,Polk,x,,19153,Iowa,
Elkport,42.7397104,-91.2779108,1924825,Clayton,x,,19043,Iowa,
Elliott,41.1491582,-95.1638809,1924915,Montgomery,x,,19137,Iowa,
Ellston,40.8402713,-94.1085622,1925005,Ringgold,x,,19159,Iowa,
Ellsworth,42.3124934,-93.5787757,1925050,Hamilton,x,,19079,Iowa,
Andrew,42.1536292,-90.5923542,1902125,Jackson,x,,19097,Iowa,
Elma,43.2466362,-92.4360102,1925095,Howard,x,,19089,Iowa,
Ely,41.8736182,-91.585175,1925365,Linn,x,,19113,Iowa,
Emerson,41.0172179,-95.4022179,1925500,Mills,x,,19129,Iowa,
Emmetsburg,43.1127427,-94.6830357,1925590,Palo Alton,x,,19147,Iowa,
Epworth,42.4450016,-90.9320766,1925725,Dubuque,x,,19061,Iowa,
Essex,40.8344024,-95.3073003,1925815,Page,x,,19145,Iowa,
Estherville,43.4013478,-94.8391532,1925860,Emmet,x,,19063,Iowa,
Evansdale,42.4691543,-92.281017,1925995,Black Hawk,x,,19013,Iowa,
Everly,43.1616378,-95.3280572,1926175,Clay,x,,19041,Iowa,
Exira,41.591156,-94.8763141,1926265,Audubon,x,,19009,Iowa,
Anita,41.4438761,-94.764146,1902260,Cass,x,,19029,Iowa,
Exline,40.6491835,-92.8404762,1926310,Appanoose,x,,19007,Iowa,
Fairbank,42.6391512,-92.0471199,1926355,Buchanan,x,x,19019,Iowa,
Fairbank,42.6391512,-92.0471199,1926355,Fayette,,,19065,Iowa,
Fairfax,41.9194471,-91.7810132,1926400,Linn,x,,19113,Iowa,
Fairfield,41.0076114,-91.9636914,1926445,Jefferson,x,,19101,Iowa,
Farley,42.4444448,-91.0051339,1926760,Dubuque,x,,19061,Iowa,
Farmersburg,42.9610957,-91.3679144,1926850,Clayton,x,,19043,Iowa,
Farmington,40.6403124,-91.7429429,1926895,Van Buren,x,,19177,Iowa,
Farnhamville,42.2760896,-94.403859,1926940,Calhoun,x,x,19025,Iowa,
Farnhamville,42.2760896,-94.403859,1926940,Webster,,,19187,Iowa,
Ankeny,41.7317884,-93.6001278,1902305,Polk,x,,19153,Iowa,
Farragut,40.7208593,-95.4808047,1926985,Fremont,x,,19071,Iowa,
Fayette,42.8419255,-91.8021071,1927165,Fayette,x,,19065,Iowa,
Fenton,43.2196851,-94.4305282,1927210,Kossuth,x,,19109,Iowa,
Ferguson,41.936934,-92.8657529,1927255,Marshall,x,,19127,Iowa,
Fertile,43.2644001,-93.418263,1927390,Worth,x,,19195,Iowa,
Floris,40.8650192,-92.3329612,1927975,Davis,x,,19051,Iowa,
Floyd,43.1277502,-92.7363031,1928020,Floyd,x,,19067,Iowa,
Fonda,42.5813666,-94.8460957,1928245,Pocahontas,x,,19151,Iowa,
Fontanelle,41.2897097,-94.5616359,1928290,Adair,x,,19001,Iowa,
Forest City,43.2624685,-93.6371937,1928380,Hancock,,,19081,Iowa,
Anthon,42.3883232,-95.8666772,1902350,Woodbury,x,,19193,Iowa,
Forest City,43.2624685,-93.6371937,1928380,Winnebago,x,x,19189,Iowa,
Fort Atkinson,43.1433068,-91.9326637,1928425,Winneshiek,x,,19191,Iowa,
Fort Dodge,42.4974694,-94.1680158,1928515,Webster,x,,19187,Iowa,
Fort Madison,40.6297634,-91.314535,1928605,Lee,x,,19111,Iowa,
Fostoria,43.2421877,-95.1555519,1928650,Clay,x,,19041,Iowa,
Franklin,42.7372361,-93.3388917,1928740,Lee,x,,19111,Iowa,
Fraser,42.1271312,-93.9698481,1928920,Boone,x,,19015,Iowa,
Fredericksburg,42.9652547,-92.1996196,1928965,Chickasaw,x,,19037,Iowa,
Frederika,42.8816453,-92.3082344,1929010,Bremer,x,,19017,Iowa,
Fredonia,41.2846047,-91.3386762,1929055,Louisa,x,,19115,Iowa,
Aplington,42.5820329,-92.8845695,1902395,Butler,x,,19023,Iowa,
Fremont,41.2125116,-92.4354648,1929190,Mahaska,x,,19123,Iowa,
Fruitland,41.3561152,-91.1287769,1929280,Muscatine,x,,19139,Iowa,
Frytown,41.4830723,-91.7060015,1929325,Johnson,x,,19103,Iowa,CDP
Galt,42.693076,-93.6055899,1929550,Wright,x,,19197,Iowa,
Galva,42.5069289,-95.4172221,1929595,Ida,x,,19093,Iowa,
Garber,42.7419328,-91.2620768,1929685,Clayton,x,,19043,Iowa,
Garden City,42.2455406,-93.3954865,1929730,Hardin,x,,19083,Iowa,CDP
Garden Grove,40.8272245,-93.6071621,1929775,Decatur,x,,19053,Iowa,
Garnavillo,42.8685981,-91.2359644,1929910,Clayton,x,,19043,Iowa,
Garner,43.1023343,-93.6020858,1929955,Hancock,x,,19081,Iowa,
Arcadia,42.0872073,-95.0461023,1902485,Carroll,x,,19027,Iowa,
Garrison,42.1441612,-92.1437942,1930000,Benton,x,,19011,Iowa,
Garwin,42.0935999,-92.6757523,1930045,Tama,x,,19171,Iowa,
Geneva,42.6755165,-93.1296043,1930135,Franklin,x,,19069,Iowa,
George,43.3438624,-96.0022431,1930225,Lyon,x,,19119,Iowa,
Gibson,41.4811167,-92.3935181,1930540,Keokuk,x,,19107,Iowa,
Gilbert,42.1069288,-93.6496628,1930630,Story,x,,19169,Iowa,
Gilbertville,42.4161001,-92.2149046,1930675,Black Hawk,x,,19013,Iowa,
Gillett Grove,43.0158045,-95.03749,1930810,Clay,x,,19041,Iowa,
Gilman,41.8788799,-92.7893617,1930900,Marshall,x,,19127,Iowa,
Gilmore City,42.7294176,-94.4477507,1930945,Humboldt,x,x,19091,Iowa,
Archer,43.1152567,-95.7458465,1902530,O'Brien,x,,19141,Iowa,
Gilmore City,42.7294176,-94.4477507,1930945,Pocahontas,,,19151,Iowa,
Gladbrook,42.1877647,-92.715199,1931035,Tama,x,,19171,Iowa,
Glenwood,41.0469437,-95.7425056,1931350,Mills,x,,19129,Iowa,
Glidden,42.0569297,-94.72887,1931395,Carroll,x,,19027,Iowa,
Goldfield,42.7349711,-93.9149462,1931530,Wright,x,,19197,Iowa,
Goodell,42.9230219,-93.6163218,1931575,Hancock,x,,19081,Iowa,
Goose Lake,41.9675262,-90.3829093,1931665,Clinton,x,,19045,Iowa,
Gowrie,42.2806289,-94.2907762,1931710,Webster,x,,19187,Iowa,
Graettinger,43.237733,-94.751303,1931800,Palo Alton,x,,19147,Iowa,
Graf,42.4930565,-90.8712405,1931845,Dubuque,x,,19061,Iowa,
Aredale,42.8330278,-93.0054745,1902620,Butler,x,,19023,Iowa,
Grafton,43.3299641,-93.0693679,1931890,Worth,x,,19195,Iowa,
Grand Junction,42.0313859,-94.2371186,1931980,Greene,x,,19073,Iowa,
Grand Mound,41.8247927,-90.6476151,1932025,Clinton,x,,19045,Iowa,
Grand River,40.8194405,-93.9624481,1932070,Decatur,x,,19053,Iowa,
Grandview,41.2758617,-91.1884837,1932115,Louisa,x,,19115,Iowa,
Granger,41.7610984,-93.8243923,1932160,Dallas,x,,19049,Iowa,
Grant,41.1427675,-94.9847084,1932295,Montgomery,x,,19137,Iowa,
Granville,42.9855402,-95.8736256,1932475,Sioux,x,,19167,Iowa,
Gravity,40.7605426,-94.7435821,1932520,Taylor,x,,19173,Iowa,
Gray,41.8394302,-94.9830448,1932565,Audubon,x,,19009,Iowa,
Arion,41.9461666,-95.4594338,1902755,Crawford,x,,19047,Iowa,
Greeley,42.5858221,-91.3415286,1932610,Delaware,x,,19055,Iowa,
Greene,42.8958066,-92.8024158,1932745,Butler,x,,19023,Iowa,
Greenfield,41.3052657,-94.4613543,1932790,Adair,x,,19001,Iowa,
Green Mountain,42.1016542,-92.8204774,1932925,Marshall,x,,19127,Iowa,unincorporated community
Greenville,43.01664,-95.1461046,1932970,Clay,x,,19041,Iowa,
Grimes,41.6883646,-93.7925199,1933060,Dallas,,,19049,Iowa,
Grimes,41.6883646,-93.7925199,1933060,Polk,x,x,19153,Iowa,
Grinnell,41.7434092,-92.7232456,1933105,Poweshiek,x,,19157,Iowa,
Griswold,41.234991,-95.1374929,1933150,Cass,x,,19029,Iowa,
Grundy Center,42.3616501,-92.7685327,1933195,Grundy,x,,19075,Iowa,
Adair,41.50043,-94.6433504,1900370,Adair,x,x,19001,Iowa,
Arispe,40.9494354,-94.2191198,1902800,Union,x,,19175,Iowa,
Gruver,43.3932914,-94.7052597,1933240,Emmet,x,,19063,Iowa,
Guernsey,41.6486132,-92.342684,1933285,Poweshiek,x,,19157,Iowa,
Guthrie Center,41.6772087,-94.5033044,1933420,Guthrie,x,,19077,Iowa,
Guttenberg,42.7899897,-91.1029068,1933465,Clayton,x,,19043,Iowa,
Halbur,42.0069297,-94.9699895,1933645,Carroll,x,,19027,Iowa,
Hamburg,40.6044458,-95.6577711,1933780,Fremont,x,,19071,Iowa,
Hamilton,41.1699246,-92.9034876,1933870,Marion,x,,19125,Iowa,
Hampton,42.7425009,-93.2103402,1933960,Franklin,x,,19069,Iowa,
Hancock,41.3901703,-95.3633591,1934005,Pottawattamie,x,,19155,Iowa,
Hanlontown,43.2803948,-93.3786783,1934185,Worth,x,,19195,Iowa,
Arlington,42.7491501,-91.6712663,1902845,Fayette,x,,19065,Iowa,
Hansell,42.7569032,-93.1043084,1934365,Franklin,x,,19069,Iowa,
Harcourt,42.2627534,-94.1757943,1934410,Webster,x,,19187,Iowa,
Hardy,42.8105258,-94.0513432,1934455,Humboldt,x,,19091,Iowa,
Harlan,41.653044,-95.3255541,1934500,Shelby,x,,19165,Iowa,
Harper,41.3625116,-92.0510106,1934545,Keokuk,x,,19107,Iowa,
Harpers Ferry,43.2005358,-91.1531852,1934590,Allamakee,x,,19005,Iowa,
Harris,43.444903,-95.4335602,1934635,Osceola,x,,19143,Iowa,
Hartford,41.4594355,-93.4049333,1934680,Warren,x,,19181,Iowa,
Hartley,43.1802719,-95.4770511,1934725,O'Brien,x,,19141,Iowa,
Hartwick,41.784875,-92.3448474,1934770,Poweshiek,x,,19157,Iowa,
Armstrong,43.3960697,-94.4783082,1902935,Emmet,x,,19063,Iowa,
Harvey,41.315833,-92.9240884,1934860,Marion,x,,19125,Iowa,
Hastings,41.0236518,-95.4992019,1934995,Mills,x,,19129,Iowa,
Havelock,42.8360833,-94.7005363,1935130,Pocahontas,x,,19151,Iowa,
Haverhill,41.9449889,-92.9607541,1935220,Marshall,x,,19127,Iowa,
Hawarden,42.9963772,-96.4891976,1935265,Sioux,x,,19167,Iowa,
Hawkeye,42.9385894,-91.9501687,1935310,Fayette,x,,19065,Iowa,
Hayesville,41.2644569,-92.2490711,1935445,Keokuk,x,,19107,Iowa,
Hayfield,43.1766254,-93.6952163,1935490,Hancock,x,,19091,Iowa,CDP
Hazleton,42.6174483,-91.9056039,1935580,Buchanan,x,,19019,Iowa,
Hedrick,41.1725134,-92.3087945,1935670,Keokuk,x,,19107,Iowa,
Arnolds Park,43.3727408,-95.1238841,1903025,Dickinson,x,,19059,Iowa,
Henderson,41.1405507,-95.43111,1935715,Mills,x,,19129,Iowa,
Hepburn,40.8491568,-95.0172036,1935760,Page,x,,19145,Iowa,
Hiawatha,42.0491958,-91.6815252,1935940,Linn,x,,19113,Iowa,
High Amana,41.8033392,-91.9382346,1936030,Iowa,x,,19095,Iowa,CDP
Hills,41.5541855,-91.5348875,1936345,Johnson,x,,19103,Iowa,
Hillsboro,40.8366959,-91.7157202,1936390,Henry,x,,19087,Iowa,
Hinton,42.6266175,-96.2924857,1936480,Plymouth,x,,19149,Iowa,
Holiday Lake,41.8185424,-92.4486716,1936660,Poweshiek,x,,19157,Iowa,CDP
Holland,42.3988715,-92.8004769,1936705,Grundy,x,,19075,Iowa,
Holstein,42.4891531,-95.545003,1936840,Ida,x,,19093,Iowa,
Arthur,42.3357283,-95.3474528,1903115,Ida,x,,19093,Iowa,
Holy Cross,42.6005516,-90.9956854,1936885,Dubuque,x,,19061,Iowa,
Homestead,41.759477,-91.8671024,1936975,Iowa,x,,19095,Iowa,CDP
Hopkinton,42.3438857,-91.2484799,1937155,Delaware,x,,19055,Iowa,
Hornick,42.2305463,-96.097517,1937200,Woodbury,x,,19193,Iowa,
Hospers,43.0719637,-95.9047077,1937290,Sioux,x,,19167,Iowa,
Houghton,40.7836439,-91.6029375,1937335,Lee,x,,19111,Iowa,
Hubbard,42.3055396,-93.3002055,1937425,Hardin,x,,19083,Iowa,
Hudson,42.406653,-92.4554671,1937470,Black Hawk,x,,19013,Iowa,
Hull,43.1885919,-96.1336329,1937515,Sioux,x,,19167,Iowa,
Humboldt,42.7208047,-94.2152402,1937560,Humboldt,x,,19091,Iowa,
Asbury,42.5144462,-90.751516,1903160,Dubuque,x,,19061,Iowa,
Humeston,40.858892,-93.4974371,1937605,Wayne,x,,19185,Iowa,
Hutchins,43.09163,-93.8810585,1937875,Hancock,x,,19081,Iowa,CDP
Huxley,41.895265,-93.6007732,1937920,Story,x,,19169,Iowa,
Ida Grove,42.3462987,-95.4716235,1938010,Ida,x,,19093,Iowa,
Imogene,40.8794417,-95.4269371,1938055,Fremont,x,,19071,Iowa,
Independence,42.4685978,-91.8893386,1938100,Buchanan,x,,19019,Iowa,
Indianola,41.3580484,-93.5574376,1938280,Warren,x,,19181,Iowa,
Inwood,43.3072022,-96.4319799,1938415,Lyon,x,,19119,Iowa,
Ionia,43.0341414,-92.4560143,1938460,Chickasaw,x,,19037,Iowa,
Iowa City,41.6611277,-91.5301683,1938595,Johnson,x,,19103,Iowa,
Ashton,43.3121952,-95.788072,1903295,Osceola,x,,19143,Iowa,
Iowa Falls,42.5198868,-93.2645741,1938640,Hardin,x,,19083,Iowa,
Ireton,42.97471,-96.3183585,1938820,Sioux,x,,19167,Iowa,
Irvington,43.0074676,-94.1955173,1938955,Kossuth,x,,19109,Iowa,CDP
Irwin,41.7916538,-95.2058286,1939000,Shelby,x,,19165,Iowa,
Jackson Junction,43.1149733,-92.0323906,1939135,Winneshiek,x,,19191,Iowa,
Jacksonville,41.644333,-95.151741,1939180,Shelby,x,,19165,Iowa,CDP
Jamaica,41.8460962,-94.3096871,1939225,Guthrie,x,,19077,Iowa,
Janesville,42.6438713,-92.458797,1939405,Black Hawk,,,19013,Iowa,
Janesville,42.6438713,-92.458797,1939405,Bremer,x,x,19017,Iowa,
Jefferson,42.0172457,-94.3774232,1939450,Greene,x,,19073,Iowa,
Aspinwall,41.911931,-95.135549,1903340,Crawford,x,,19047,Iowa,
Jesup,42.475543,-92.0637884,1939585,Black Hawk,,,19013,Iowa,
Jesup,42.475543,-92.0637884,1939585,Buchanan,x,x,19019,Iowa,
Jewell Junction,42.306818,-93.6400274,1939675,Hamilton,x,,19079,Iowa,
Johnston,41.6709834,-93.7130493,1939765,Polk,x,,19153,Iowa,
Joice,43.3626927,-93.4540338,1939855,Worth,x,,19195,Iowa,
Jolley,42.4788677,-94.7188696,1939900,Calhoun,x,,19025,Iowa,
Kalona,41.4830723,-91.7060015,1940170,Washington,x,,19183,Iowa,
Kamrar,42.3910886,-93.72994,1940215,Hamilton,x,,19079,Iowa,
Kanawha,42.9377443,-93.7932746,1940260,Hancock,x,,19081,Iowa,
Kellerton,40.7108291,-94.0499506,1940350,Ringgold,x,,19159,Iowa,
Atalissa,41.5711357,-91.1659887,1903385,Muscatine,x,,19139,Iowa,
Kelley,41.950542,-93.66522,1940395,Story,x,,19169,Iowa,
Kellogg,41.7180533,-92.9077629,1940440,Jasper,x,,19099,Iowa,
Kensett,43.3535696,-93.2104815,1940665,Worth,x,,19195,Iowa,
Kent,40.9524887,-94.4544057,1940710,Union,x,,19175,Iowa,CDP
Keokuk,40.4044731,-91.3963966,1940845,Lee,x,,19111,Iowa,
Keomah Village,41.2883419,-92.5365785,1940890,Mahaska,x,,19123,Iowa,
Keosauqua,40.7303057,-91.9623949,1940935,Van Buren,x,,19177,Iowa,
Keota,41.3639015,-91.9537859,1940980,Keokuk,x,,19107,Iowa,
Keswick,41.4525084,-92.2393485,1941070,Keokuk,x,,19107,Iowa,
Keystone,41.9983294,-92.1974065,1941115,Benton,x,,19011,Iowa,
Athelstan,40.5726749,-94.542237,1903430,Taylor,x,,19173,Iowa,CDP
Kimballton,41.628599,-95.0730466,1941295,Audubon,x,,19009,Iowa,
Kingsley,42.588324,-95.9675165,1941385,Plymouth,x,,19149,Iowa,
Kinross,41.4608441,-91.9868424,1941475,Keokuk,x,,19107,Iowa,
Kirkman,41.7285986,-95.2652747,1941520,Shelby,x,,19165,Iowa,
Kirkville,41.1455673,-92.5040772,1941565,Wapello,x,,19179,Iowa,
Kiron,42.1955423,-95.327774,1941610,Crawford,x,,19047,Iowa,
Klemme,43.0069077,-93.6029884,1941655,Hancock,x,,19081,Iowa,
Knierim,42.454588,-94.457458,1941790,Calhoun,x,,19025,Iowa,
Knoxville,41.320343,-93.09967,1942015,Marion,x,,19125,Iowa,
La Motte,42.2958455,-90.6209631,1943050,Jackson,x,,19097,Iowa,
Adair,41.50043,-94.6433504,1900370,Guthrie,,,19077,Iowa,
Atkins,41.9969436,-91.8621262,1903475,Benton,x,,19011,Iowa,
La Porte City,42.3149911,-92.1921275,1943365,Black Hawk,x,,19013,Iowa,
Lacona,41.1897188,-93.382989,1942285,Warren,x,,19181,Iowa,
Ladora,41.7547247,-92.1835156,1942330,Iowa,x,,19095,Iowa,
Lake City,42.2674828,-94.7338704,1942465,Calhoun,x,,19025,Iowa,
Lake Mills,43.419329,-93.5325269,1942555,Winnebago,x,,19189,Iowa,
Lake Panorama,41.7222853,-94.4092071,1942575,Guthrie,x,,19077,Iowa,CDP
Lake Park,43.4532977,-95.3225004,1942600,Dickinson,x,,19059,Iowa,
Lake View,42.3116499,-95.053324,1942690,Sac,x,,19161,Iowa,
Lakeside,42.6213691,-95.1733278,1942645,Buena Vista,x,,19021,Iowa,
Lakota,43.3771806,-94.0938478,1942825,Kossuth,x,,19109,Iowa,
Atlantic,41.4036007,-95.0138776,1903520,Cass,x,,19029,Iowa,
Lambs Grove,41.7008717,-93.0789094,1942870,Jasper,x,,19099,Iowa,
Lamoni,40.622777,-93.9341158,1942960,Decatur,x,,19053,Iowa,
Lamont,42.5985957,-91.6421006,1943005,Buchanan,x,,19019,Iowa,
Lanesboro,42.1844279,-94.6913689,1943140,Carroll,x,,19027,Iowa,
Lansing,43.3609053,-91.218768,1943275,Allamakee,x,,19005,Iowa,
Larchwood,43.4535861,-96.434205,1943410,Lyon,x,,19119,Iowa,
Larrabee,42.8608138,-95.5452848,1943500,Cherokee,x,,19035,Iowa,
Latimer,42.7633056,-93.3682594,1943590,Franklin,x,,19069,Iowa,
Laurel,41.8841565,-92.9221412,1943680,Marshall,x,,19127,Iowa,
Laurens,42.8466398,-94.8519296,1943725,Pocahontas,x,,19151,Iowa,
Auburn,42.2513724,-94.8777638,1903610,Sac,x,,19161,Iowa,
Lawler,43.0695607,-92.1557563,1943815,Chickasaw,x,,19037,Iowa,
Lawton,42.4786037,-96.1839121,1943905,Woodbury,x,,19193,Iowa,
Le Claire,41.5975061,-90.3462215,1944085,Scott,x,,19163,Iowa,
Le Grand,42.0069336,-92.7754761,1944220,Marshall,x,x,19127,Iowa,
Le Grand,42.0069336,-92.7754761,1944220,Tama,,,19171,Iowa,
Le Mars,42.7941567,-96.1655778,1944400,Plymouth,x,,19149,Iowa,
Le Roy,40.8777792,-93.5927169,1944580,Decatur,x,,19053,Iowa,
Leando,40.8336341,-92.0887878,1943950,Van Buren,x,,19177,Iowa,CDP
Ledyard,43.4216241,-94.1621842,1944130,Kossuth,x,,19109,Iowa,
Lehigh,42.3599729,-94.0521771,1944265,Webster,x,,19187,Iowa,
Audubon,41.7180421,-94.9324868,1903655,Audubon,x,,19009,Iowa,
Leighton,41.3372242,-92.7871403,1944310,Mahaska,x,,19123,Iowa,
Leland,43.3371775,-93.6352157,1944355,Winnebago,x,,19189,Iowa,
Lenox,40.8816547,-94.5619095,1944490,Adams,,,19003,Iowa,
Lenox,40.8816547,-94.5619095,1944490,Taylor,x,x,19173,Iowa,
Leon,40.739724,-93.7477217,1944535,Decatur,x,,19053,Iowa,
Lester,43.4375077,-96.3327156,1944670,Lyon,x,,19119,Iowa,
Letts,41.3300271,-91.2362638,1944715,Louisa,x,,19115,Iowa,
Lewis,41.3058237,-95.0833248,1944805,Cass,x,,19029,Iowa,
Libertyville,40.9575203,-92.0512863,1944985,Jefferson,x,,19101,Iowa,
Lidderdale,42.124429,-94.7830386,1945030,Carroll,x,,19027,Iowa,
Aurelia,42.71276,-95.4366701,1903745,Cherokee,x,,19035,Iowa,
Lime Springs,43.4488554,-92.2807251,1945165,Howard,x,,19089,Iowa,
Lincoln,42.2627638,-92.6918654,1945255,Tama,x,,19171,Iowa,
Linden,41.6444317,-94.2691286,1945390,Dallas,x,,19049,Iowa,
Lineville,40.5843892,-93.5234432,1945435,Wayne,x,,19185,Iowa,
Linn Grove,42.8916443,-95.2466637,1945480,Buena Vista,x,,19021,Iowa,
Lisbon,41.9211198,-91.3854466,1945615,Linn,x,,19113,Iowa,
Liscomb,42.1880411,-93.0071458,1945660,Marshall,x,,19127,Iowa,
Little Cedar,43.3802849,-92.7257634,1945705,Mitchell,x,,19131,Iowa,CDP
Little Rock,43.4441353,-95.8833524,1945795,Lyon,x,,19119,Iowa,
Little Sioux,41.8094323,-96.0211227,1945840,Harrison,x,,19085,Iowa,
Aurora,42.618873,-91.7284957,1903835,Buchanan,x,,19019,Iowa,
Littleport,42.7547086,-91.369303,1945750,Clayton,x,,19043,Iowa,unincorporated community
Livermore,42.8684765,-94.1849388,1945975,Humboldt,x,,19091,Iowa,
Lockridge,40.9947756,-91.7475707,1946065,Jefferson,x,,19101,Iowa,
Logan,41.6430472,-95.7891614,1946155,Harrison,x,,19085,Iowa,
Lohrville,42.2702588,-94.5485865,1946245,Calhoun,x,,19025,Iowa,
Lone Rock,43.2201711,-94.3244079,1946290,Kossuth,x,,19109,Iowa,
Lone Tree,41.4880775,-91.425994,1946335,Johnson,x,,19103,Iowa,
Long Grove,41.6975304,-90.5826381,1946425,Scott,x,,19163,Iowa,
Lorimor,41.1283249,-94.0532835,1946515,Union,x,,19175,Iowa,
Lost Nation,41.9639095,-90.8176431,1946605,Clinton,x,,19045,Iowa,
Avoca,41.4766571,-95.3380549,1903970,Pottawattamie,x,,19155,Iowa,
Loveland,41.497471,-95.887817,1946785,Pottawattamie,x,,19155,Iowa,CDP
Lovilia,41.1358371,-92.9040881,1946830,Monroe,x,,19135,Iowa,
Low Moor,41.8016967,-90.3548535,1947010,Clinton,x,,19045,Iowa,
Lowden,41.8571761,-90.9250832,1946920,Cedar,x,,19031,Iowa,
Lu Verne,42.9082323,-94.0845981,1947370,Humboldt,,,19091,Iowa,
Lu Verne,42.9082323,-94.0845981,1947370,Kossuth,x,x,19109,Iowa,
Luana,43.0603496,-91.454584,1947055,Clayton,x,,19043,Iowa,
Lucas,41.0274991,-93.4599348,1947100,Lucas,x,,19117,Iowa,
Luther,41.9677627,-93.8188366,1947280,Boone,x,,19015,Iowa,
Luxemburg,42.6027721,-91.0740206,1947460,Dubuque,x,,19061,Iowa,
Ayrshire,43.0391346,-94.8327618,1904105,Palo Alton,x,,19147,Iowa,
Luzerne,41.9055544,-92.1799056,1947505,Benton,x,,19011,Iowa,
Lynnville,41.5774965,-92.7835261,1947595,Jasper,x,,19099,Iowa,
Lytton,42.4230361,-94.8597071,1947730,Calhoun,,,19025,Iowa,
Lytton,42.4230361,-94.8597071,1947730,Sac,x,x,19161,Iowa,
Macedonia,41.1927723,-95.4255553,1947955,Pottawattamie,x,,19155,Iowa,
Macksburg,41.2147121,-94.185232,1948180,Madison,x,,19121,Iowa,
Madrid,41.8779511,-93.8156689,1948450,Boone,x,,19015,Iowa,
Magnolia,41.6958226,-95.8766762,1948495,Harrison,x,,19085,Iowa,
Maharishi Vedic City,41.0525185,-91.9948961,1948500,Jefferson,x,,19101,Iowa,
Malcom,41.7083302,-92.559076,1948540,Poweshiek,x,,19157,Iowa,
Badger,42.6144147,-94.14607,1904195,Webster,x,,19187,Iowa,
Mallard,42.9363589,-94.6822021,1948585,Palo Alton,x,,19147,Iowa,
Maloy,40.6744348,-94.4121811,1948675,Ringgold,x,,19159,Iowa,
Malvern,41.006292,-95.5851456,1948720,Mills,x,,19129,Iowa,
Manchester,42.4857853,-91.4579698,1948810,Delaware,x,,19055,Iowa,
Manilla,41.8896933,-95.233605,1948855,Crawford,x,,19047,Iowa,
Manly,43.2907924,-93.2032593,1948900,Worth,x,,19195,Iowa,
Manning,41.9091382,-95.0651328,1948945,Carroll,x,,19027,Iowa,
Manson,42.5291439,-94.5341421,1948990,Calhoun,x,,19025,Iowa,
Mapleton,42.1658227,-95.7930621,1949170,Monona,x,,19133,Iowa,
Maquoketa,42.0689088,-90.6656914,1949215,Jackson,x,,19097,Iowa,
Bagley,41.8460964,-94.4299694,1904240,Guthrie,x,,19077,Iowa,
Marathon,42.8616407,-94.9824889,1949260,Buena Vista,x,,19021,Iowa,
Marble Rock,42.965249,-92.8640832,1949305,Floyd,x,,19067,Iowa,
Marcus,42.8272084,-95.8077912,1949350,Cherokee,x,,19035,Iowa,
Marengo,41.7927817,-92.0696253,1949395,Iowa,x,,19095,Iowa,
Marion,42.033279,-91.5968958,1949485,Linn,x,,19113,Iowa,
Marne,41.4513786,-95.1113809,1949575,Cass,x,,19029,Iowa,
Marquette,43.0444284,-91.1781855,1949620,Clayton,x,,19043,Iowa,
Marshalltown,42.0494674,-92.9080375,1949755,Marshall,x,,19127,Iowa,
Martelle,42.0216714,-91.3598896,1949845,Jones,x,,19105,Iowa,
Martensdale,41.3730474,-93.7357761,1949890,Warren,x,,19181,Iowa,
Adel,41.6144325,-94.017453,1900505,Dallas,x,,19049,Iowa,
Baldwin,42.0741832,-90.8415301,1904330,Jackson,x,,19097,Iowa,
Martinsburg,41.1789028,-92.2518487,1949935,Keokuk,x,,19107,Iowa,
Marysville,41.1805576,-92.9490895,1950070,Marion,x,,19125,Iowa,
Mason City,43.1535728,-93.2010367,1950160,Cerro Gordo,x,,19033,Iowa,
Masonville,42.4794303,-91.5912668,1950205,Delaware,x,,19055,Iowa,
Massena,41.2541538,-94.7683112,1950250,Cass,x,,19029,Iowa,
Matlock,43.2438658,-95.9352966,1950385,Sioux,x,,19167,Iowa,
Maurice,42.9672095,-96.1850216,1950430,Sioux,x,,19167,Iowa,
Maxwell,41.8919322,-93.3996546,1950520,Story,x,,19169,Iowa,
Maynard,42.7738712,-91.88239,1950610,Fayette,x,,19065,Iowa,
Maysville,41.6486402,-90.7168091,1950655,Scott,x,,19163,Iowa,
Balltown,42.6380516,-90.868739,1904375,Dubuque,x,,19061,Iowa,
McCallsburg,42.1633191,-93.3952091,1947775,Story,x,,19169,Iowa,
McCausland,41.7461421,-90.4431895,1947820,Scott,x,,19163,Iowa,
McClelland,41.3305512,-95.6836185,1947865,Pottawattamie,x,,19155,Iowa,
McGregor,43.0246813,-91.1812468,1948000,Clayton,x,,19043,Iowa,
McIntire,43.4358006,-92.5937915,1948045,Mitchell,x,,19131,Iowa,
Mechanicsville,41.9027909,-91.2546067,1950700,Cedar,x,,19031,Iowa,
Mediapolis,41.0080904,-91.1640369,1950790,Des Moines,x,,19057,Iowa,
Melbourne,41.9413772,-93.1032569,1950880,Marshall,x,,19127,Iowa,
Melcher-Dallas,41.2249966,-93.2413191,1950935,Marion,x,,19125,Iowa,
Melrose,40.9749527,-93.0494741,1950970,Monroe,x,,19135,Iowa,
Bancroft,43.2927386,-94.2180192,1904420,Kossuth,x,,19109,Iowa,
Melvin,43.2874718,-95.609178,1951060,Osceola,x,,19143,Iowa,
Menlo,41.5191542,-94.4044105,1951105,Guthrie,x,,19077,Iowa,
Meriden,42.795817,-95.6330648,1951150,Cherokee,x,,19035,Iowa,
Merrill,42.7197133,-96.2486357,1951375,Plymouth,x,,19149,Iowa,
Meservey,42.9123556,-93.4774669,1951420,Cerro Gordo,x,,19033,Iowa,
Meyer,43.4577455,-92.6926844,1951510,Mitchell,x,,19131,Iowa,CDP
Middle Amana,41.7955624,-91.8996227,1951600,Iowa,x,,19095,Iowa,CDP
Middletown,40.8271358,-91.2615169,1951735,Des Moines,x,,19057,Iowa,
Miles,42.0483573,-90.3156857,1952050,Jackson,x,,19097,Iowa,
Milford,43.3246863,-95.149996,1952095,Dickinson,x,,19059,Iowa,
Bankston,42.5186098,-90.9612418,1904510,Dubuque,x,,19061,Iowa,
Miller,43.1841245,-93.6002123,1952140,Hancock,x,,19081,Iowa,CDP
Millersburg,41.5733401,-92.1599027,1952230,Iowa,x,,19095,Iowa,
Millerton,40.8500034,-93.3071551,1952275,Wayne,x,,19185,Iowa,
Millville,42.6999921,-91.0742964,1952410,Clayton,x,,19043,Iowa,unincorporated community
Milo,41.2916612,-93.4424347,1952455,Warren,x,,19181,Iowa,
Milton,40.6733602,-92.1621241,1952500,Van Buren,x,,19177,Iowa,
Minburn,41.7563757,-94.0274544,1952545,Dallas,x,,19049,Iowa,
Minden,41.4669362,-95.5427822,1952590,Pottawattamie,x,,19155,Iowa,
Mineola,41.1432161,-95.6957551,1952635,Mills,x,,19129,Iowa,CDP
Mingo,41.7674881,-93.2835392,1952815,Jasper,x,,19099,Iowa,
Barnes City,41.5083371,-92.4682418,1904555,Mahaska,x,x,19123,Iowa,
Missouri Valley,41.5563713,-95.8877767,1952860,Harrison,x,,19085,Iowa,
Mitchell,43.3216363,-92.8668621,1952905,Mitchell,x,,19131,Iowa,
Mitchellville,41.6666555,-93.3571534,1952950,Jasper,,,19099,Iowa,
Mitchellville,41.6666555,-93.3571534,1952950,Polk,x,x,19153,Iowa,
Modale,41.6205466,-96.0100118,1952995,Harrison,x,,19085,Iowa,
Mona,43.487457,-92.943359,1953085,MItchell,x,,19131,Iowa,CDP
Mondamin,41.7103572,-96.0205391,1953175,Harrison,x,,19085,Iowa,
Moneta,43.1291394,-95.3905589,1953220,O'Brien,x,,19141,Iowa,other
Monmouth,42.07696,-90.8798647,1953265,Jackson,x,,19097,Iowa,
Monona,43.0516494,-91.3893041,1953310,Clayton,x,,19043,Iowa,
Barnes City,41.5083371,-92.4682418,1904555,Poweshiek,,,19157,Iowa,
Monroe,41.5208256,-93.1038129,1953355,Jasper,x,,19099,Iowa,
Montezuma,41.585834,-92.5274091,1953490,Poweshiek,x,,19157,Iowa,
Monticello,42.2383351,-91.1870937,1953625,Jones,x,,19105,Iowa,
Montour,41.9813789,-92.7149187,1953670,Tama,x,,19171,Iowa,
Montrose,40.5322644,-91.414876,1953760,Lee,x,,19111,Iowa,
Moorhead,41.9224881,-95.8513975,1953850,Monona,x,,19133,Iowa,
Moorland,42.4419167,-94.2960772,1953895,Webster,x,,19187,Iowa,
Moravia,40.8916777,-92.8190852,1953985,Appanoose,x,,19007,Iowa,
Morley,42.0061198,-91.2462728,1954030,Jones,x,,19105,Iowa,
Morning Sun,41.0961428,-91.2576511,1954120,Louisa,x,,19115,Iowa,
Barnum,42.5085843,-94.3652468,1904645,Webster,x,,19187,Iowa,
Morrison,42.3441514,-92.6738081,1954165,Grundy,x,,19075,Iowa,
Moulton,40.6858857,-92.6771915,1954390,Appanoose,x,,19007,Iowa,
Mount Auburn,42.2566856,-92.0928678,1954435,Benton,x,,19011,Iowa,
Mount Ayr,40.7147147,-94.235232,1954480,Ringgold,x,,19159,Iowa,
Mount Pleasant,40.9716959,-91.5487714,1954705,Henry,x,,19087,Iowa,
Mount Sterling,40.6178099,-91.9321165,1954750,Van Buren,x,,19177,Iowa,unincorporated community
Mount Union,41.0578079,-91.3904332,1954795,Henry,x,,19087,Iowa,
Mount Vernon,41.9219522,-91.4168371,1954840,Linn,x,,19113,Iowa,
Moville,42.4888809,-96.0725193,1954930,Woodbury,x,,19193,Iowa,
Murray,41.0417646,-93.9493246,1955065,Clarke,x,,19039,Iowa,
Bartlett,40.8850003,-95.7950038,1904735,Fremont,x,,19071,Iowa,CDP
Muscatine,41.424473,-91.0432051,1955110,Muscatine,x,,19139,Iowa,
Mystic,40.7796806,-92.9449772,1955200,Appanoose,x,,19007,Iowa,
Nashua,42.9522221,-92.5386382,1955335,Chickasaw,x,,19037,Iowa,
Nemaha,42.5158137,-95.0883246,1955515,Sac,x,,19161,Iowa,
Neola,41.4488816,-95.6155615,1955560,Pottawattamie,x,,19155,Iowa,
Nevada,42.0227184,-93.4523014,1955695,Story,x,,19169,Iowa,
New Albin,43.496621,-91.2877212,1955785,Allamakee,x,,19005,Iowa,
New Hampton,43.0592724,-92.317864,1956100,Chickasaw,x,,19037,Iowa,
New Hartford,42.5669261,-92.6221368,1956145,Butler,x,,19023,Iowa,
New Haven,43.284444,-92.641944,1956190,Mitchell,x,,19131,Iowa,CDP
Bassett,43.062196,-92.5168492,1904780,Chickasaw,x,,19037,Iowa,
New Liberty,41.7178039,-90.8790371,1956280,Scott,x,,19163,Iowa,
New London,40.9269776,-91.3995992,1956325,Henry,x,,19087,Iowa,
New Market,40.7311,-94.8996976,1956370,Taylor,x,,19173,Iowa,
New Providence,42.2810955,-93.1715923,1956415,Hardin,x,,19083,Iowa,
New Sharon,41.4666683,-92.6474129,1956460,Mahaska,x,,19123,Iowa,
New Vienna,42.5480503,-91.1143005,1956550,Dubuque,x,,19061,Iowa,
New Virginia,41.1822168,-93.7288305,1956595,Warren,x,,19181,Iowa,
Newell,42.6055342,-95.002767,1955965,Buena Vista,x,,19021,Iowa,
Newhall,41.9955551,-91.9676815,1956055,Benton,x,,19011,Iowa,
Newton,41.7033177,-93.0573533,1956505,Jasper,x,,19099,Iowa,
Batavia,40.9942123,-92.1673287,1904825,Jefferson,x,,19101,Iowa,
Nichols,41.4811351,-91.3076576,1956685,Muscatine,x,,19139,Iowa,
Nodaway,40.9377263,-94.8935601,1956865,Adams,x,,19003,Iowa,
Nora Springs,43.1427466,-93.0043668,1956910,Cerro Gordo,,,19033,Iowa,
Nora Springs,43.1427466,-93.0043668,1956910,Floyd,x,x,19067,Iowa,
North Buena Vista,42.6797163,-90.9565171,1957135,Clayton,x,,19043,Iowa,
North English,41.5138978,-92.0762891,1957225,Iowa,x,x,19095,Iowa,
North English,41.5138978,-92.0762891,1957225,Keokuk,,,19107,Iowa,
North Liberty,41.739482,-91.6080974,1957360,Johnson,x,,19103,Iowa,
North Washington,43.1180284,-92.4168452,1957495,Chickasaw,x,,19037,Iowa,
Northboro,40.6077742,-95.2916488,1957045,Page,x,,19145,Iowa,
Afton,41.0284183,-94.1975786,1900595,Union,x,,19175,Iowa,
Battle Creek,42.315544,-95.5986135,1904870,Ida,x,,19093,Iowa,
Northwood,43.4441245,-93.2210371,1957630,Worth,x,,19195,Iowa,
Norwalk,41.475546,-93.6788304,1957675,Warren,x,,19181,Iowa,
Norway,41.9027805,-91.9215691,1957720,Benton,x,,19011,Iowa,
Numa,40.6880678,-92.9779805,1957945,Appanoose,x,,19007,Iowa,
Oakland Acres,41.7199004,-92.8215666,1958170,Jasper,x,,19099,Iowa,
Oakland,41.3094375,-95.3957997,1958080,Pottawattamie,x,,19155,Iowa,
Oakville,41.0997561,-91.0445898,1958395,Louisa,x,,19115,Iowa,
Ocheyedan,43.4178725,-95.5346906,1958530,Osceola,x,,19143,Iowa,
Odebolt,42.3110926,-95.2526878,1958575,Sac,x,,19161,Iowa,
Oelwein,42.6784949,-91.9119586,1958620,Fayette,x,,19065,Iowa,
Baxter,41.8260998,-93.1515905,1904915,Jasper,x,,19099,Iowa,
Ogden,42.0395595,-94.0320167,1958665,Boone,x,,19015,Iowa,
Okoboji,43.3863521,-95.1483293,1958710,Dickinson,x,,19059,Iowa,
Olds,41.1341914,-91.5448829,1958890,Henry,x,,19087,Iowa,
Olin,41.9980675,-91.1415456,1958980,Jones,x,,19105,Iowa,
Ollie,41.19807,-92.0924001,1959070,Keokuk,x,,19107,Iowa,
Onawa,42.0266548,-96.0972376,1959115,Monona,x,,19133,Iowa,
Onslow,42.1069559,-91.0151466,1959250,Jones,x,,19105,Iowa,
Orange City,43.0072087,-96.0583523,1959475,Sioux,x,,19167,Iowa,
Orchard,43.2274731,-92.7721384,1959520,Mitchell,x,,19131,Iowa,
Orient,41.203044,-94.4146845,1959565,Adair,x,,19001,Iowa,
Bayard,41.85193,-94.5583076,1904960,Guthrie,x,,19077,Iowa,
Orleans,43.4471715,-95.0926138,1959655,Dickinson,x,,19059,Iowa,
Osage,43.2841382,-92.8190838,1959745,Mitchell,x,,19131,Iowa,
Osceola,41.0342618,-93.766759,1959835,Clarke,x,,19039,Iowa,
Oskaloosa,41.2916728,-92.6493595,1959925,Mahaska,x,,19123,Iowa,
Ossian,43.145809,-91.7632108,1959970,Winneshiek,x,,19191,Iowa,
Osterdock,42.7336012,-91.1579083,1960015,Clayton,x,,19043,Iowa,
Otho,42.4246934,-94.1502372,1960105,Webster,x,,19187,Iowa,
Oto,42.2838792,-95.8930651,1960240,Woodbury,x,,19193,Iowa,
Otranto,43.4582977,-92.9857505,1960285,Mitchell,x,,19131,Iowa,CDP
Ottosen,42.8949702,-94.3799697,1960420,Humboldt,x,,19091,Iowa,
Beacon,41.2765637,-92.6815709,1905050,Mahaska,x,,19123,Iowa,
Ottumwa,41.0160293,-92.4083022,1960465,Wapello,x,,19179,Iowa,
Owasa,42.4335928,-93.2071473,1960555,Hardin,x,,19083,Iowa,
Oxford,41.7233397,-91.7906751,1960645,Johnson,x,,19103,Iowa,
Oxford Junction,41.9836283,-90.9562592,1960690,Jones,x,,19105,Iowa,
Oyens,42.8186005,-96.0586308,1960780,Plymouth,x,,19149,Iowa,
Pacific Junction,41.0187126,-95.8010851,1960825,Mills,x,,19129,Iowa,
Packwood,41.1327937,-92.0826771,1960915,Jefferson,x,,19101,Iowa,
Palmer,42.6305314,-94.6005333,1961050,Pocahontas,x,,19151,Iowa,
Palo,42.0660485,-91.7961118,1961230,Linn,x,,19113,Iowa,
Panama,41.7263768,-95.4722239,1961275,Shelby,x,,19165,Iowa,
Beaconsfield,40.8077725,-94.0505057,1905095,Ringgold,x,,19159,Iowa,
Panora,41.6916535,-94.3630215,1961320,Guthrie,x,,19077,Iowa,
Panorama Park,41.5555888,-90.4531878,1961365,Scott,x,,19163,Iowa,
Park View,41.6941976,-90.5456923,1961725,Scott,x,,19163,Iowa,CDP
Parkersburg,42.5774797,-92.7868634,1961590,Butler,x,,19023,Iowa,
Parnell,41.5830644,-92.0040662,1961770,Iowa,x,,19095,Iowa,
Paton,42.165256,-94.2530197,1961815,Greene,x,,19073,Iowa,
Patterson,41.3483244,-93.8805023,1961860,Madison,x,,19121,Iowa,
Paullina,42.9791479,-95.6880657,1961905,O'Brien,x,,19141,Iowa,
Pella,41.4080327,-92.916405,1962040,Marion,x,,19125,Iowa,
Peosta,42.4491375,-90.8504116,1962130,Dubuque,x,,19061,Iowa,
Beaman,42.2197079,-92.8235341,1905140,Grundy,x,,19075,Iowa,
Percival,40.7498781,-95.8123265,1962175,Fremont,x,,19071,Iowa,CDP
Perry,41.8385964,-94.1071797,1962355,Dallas,x,,19049,Iowa,
Persia,41.5805459,-95.5669489,1962445,Harrison,x,,19085,Iowa,
Peterson,42.9180333,-95.3438893,1962625,Clay,x,,19041,Iowa,
Pierson,42.5441562,-95.867513,1962760,Woodbury,x,,19193,Iowa,
Pilot Mound,42.1644225,-94.0166209,1962850,Boone,x,,19015,Iowa,
Pioneer,42.6538621,-94.3924703,1962985,Humboldt,x,,19091,Iowa,
Pisgah,41.8313769,-95.9255655,1963075,Harrison,x,,19085,Iowa,
Plainfield,42.8430793,-92.5371264,1963210,Bremer,x,,19017,Iowa,
Plano,40.7555649,-93.046593,1963345,Appanoose,x,,19007,Iowa,
Beaver,42.0383148,-94.1421817,1905185,Boone,x,,19015,Iowa,
Pleasant Hill,41.5873903,-93.5196138,1963525,Polk,x,,19153,Iowa,
Pleasant Plain,41.1472398,-91.8590602,1963615,Jefferson,x,,19101,Iowa,
Pleasanton,40.5805596,-93.7438345,1963570,Decatur,x,,19053,Iowa,
Pleasantville,41.3869578,-93.2682683,1963750,Marion,x,,19125,Iowa,
Plover,42.8784551,-94.6233643,1963840,Pocahontas,x,,19151,Iowa,
Plymouth,43.2446852,-93.1215924,1963885,Cerro Gordo,x,,19033,Iowa,
Pocahontas,42.7355299,-94.6691467,1963975,Pocahontas,x,,19151,Iowa,
Polk City,41.7713764,-93.7129997,1964020,Polk,x,,19153,Iowa,
Pomeroy,42.5510885,-94.6838687,1964065,Calhoun,x,,19025,Iowa,
Popejoy,42.5938659,-93.4260393,1964110,Franklin,x,,19069,Iowa,
Beaverdale,40.846329,-91.20826,1905200,Polk,x,,19153,Iowa,CDP
Portland,43.128576,-93.1235352,1964155,Cerro Gordo,x,,19033,Iowa,CDP
Portsmouth,41.649851,-95.519072,1964200,Shelby,x,,19165,Iowa,
Postville,43.084702,-91.5682015,1964290,Allamakee,x,x,19005,Iowa,
Postville,43.084702,-91.5682015,1964290,Clayton,,,19043,Iowa,
Prairie City,41.599434,-93.2352053,1964470,Jasper,x,,19099,Iowa,
Prairieburg,42.2383284,-91.4223828,1964425,Linn,x,,19113,Iowa,
Prescott,41.0230428,-94.6135795,1964560,Adams,x,,19003,Iowa,
Preston,42.0502844,-90.3960275,1964605,Jackson,x,,19097,Iowa,
Primghar,43.0869215,-95.627232,1964650,O'Brien,x,,19141,Iowa,
Princeton,41.6748689,-90.3409096,1964740,Scott,x,,19163,Iowa,
Bedford,40.666932,-94.721358,1905365,Taylor,x,,19173,Iowa,
Promise City,40.7475076,-93.1471516,1964875,Wayne,x,,19185,Iowa,
Protivin,43.2160819,-92.0910011,1965010,Chickasaw,,,19037,Iowa,
Protivin,43.2160819,-92.0910011,1965010,Howard,x,x,19089,Iowa,
Pulaski,40.696969,-92.2732386,1965055,Davis,x,,19051,Iowa,
Quasqueton,42.394432,-91.7610035,1965235,Buchanan,x,,19019,Iowa,
Quimby,42.6302637,-95.6419522,1965280,Cherokee,x,,19035,Iowa,
Radcliffe,42.3152613,-93.4343757,1965370,Hardin,x,,19083,Iowa,
Rake,43.4838443,-93.9188415,1965415,Winnebago,x,,19189,Iowa,
Ralston,42.0416514,-94.6330332,1965505,Carroll,x,x,19027,Iowa,
Ralston,42.0416514,-94.6330332,1965505,Greene,,,19073,Iowa,
Belle Plaine,41.8955529,-92.2757404,1905590,Benton,x,,19011,Iowa,
Randalia,42.8630359,-91.8857222,1965550,Fayette,x,,19065,Iowa,
Randall,42.2372154,-93.6030745,1965595,Hamilton,x,,19079,Iowa,
Randolph,40.8730547,-95.5663852,1965640,Fremont,x,,19071,Iowa,
Rathbun,40.8011228,-92.8888099,1965730,Appanoose,x,,19007,Iowa,
Raymond,42.468826,-92.2200485,1965820,Black Hawk,x,,19013,Iowa,
Readlyn,42.7036787,-92.2253667,1965910,Bremer,x,,19017,Iowa,
Reasnor,41.5783259,-93.0232541,1965955,Jasper,x,,19099,Iowa,
Red Oak,41.0170937,-95.2214477,1966135,Montgomery,x,,19137,Iowa,
Redding,40.6047134,-94.387736,1966000,Ringgold,x,,19159,Iowa,
Redfield,41.5894322,-94.19607,1966045,Dallas,x,,19049,Iowa,
Agency,40.996114,-92.3072825,1900640,Wapello,x,,19179,Iowa,
Bellevue,42.2588936,-90.4257531,1905635,Jackson,x,,19097,Iowa,
Reinbeck,42.323597,-92.5993615,1966315,Grundy,x,,19075,Iowa,
Rembrandt,42.8255331,-95.1663837,1966360,Buena Vista,x,,19021,Iowa,
Remsen,42.8125933,-95.9733503,1966405,Plymouth,x,,19149,Iowa,
Renwick,42.8280253,-93.981062,1966450,Humboldt,x,,19091,Iowa,
Rhodes,41.9255437,-93.1863143,1966540,Marshall,x,,19127,Iowa,
Riceville,43.3638571,-92.5540687,1966585,Howard,,,19089,Iowa,
Riceville,43.3638571,-92.5540687,1966585,Mitchell,x,x,19131,Iowa,
Richland,41.1855708,-91.992953,1966720,Keokuk,x,,19107,Iowa,
Rickardsville,42.583331,-90.8840176,1966810,Dubuque,x,,19061,Iowa,
Ricketts,42.1269332,-95.5750019,1966855,Crawford,x,,19047,Iowa,
Belmond,42.84608,-93.6140991,1905680,Wright,x,,19197,Iowa,
Ridgeway,43.2977472,-91.9876632,1967035,Winneshiek,x,,19191,Iowa,
Rinard,42.3397016,-94.4885846,1967125,Calhoun,x,,19025,Iowa,
Ringsted,43.2946832,-94.5116428,1967170,Emmet,x,,19063,Iowa,
Rippey,41.9338725,-94.2013503,1967215,Greene,x,,19073,Iowa,
Riverdale,41.5444778,-90.4581879,1967350,Scott,x,,19163,Iowa,
Riverside,41.4797413,-91.5812759,1967440,Washington,x,,19183,Iowa,
River Sioux,41.805833,-96.046111,1967530,Harrison,x,,19085,Iowa,CDP
Riverton,40.686945,-95.5686027,1967575,Fremont,x,,19071,Iowa,
Robins,42.0711084,-91.6668444,1967800,Linn,x,,19113,Iowa,
Rochester,41.6735566,-91.1580589,1967890,Cedar,x,,19031,Iowa,CDP
Bennett,41.7403023,-90.9737626,1905770,Cedar,x,,19031,Iowa,
Rock Falls,43.2055206,-93.0890915,1968025,Cerro Gordo,x,,19033,Iowa,
Rock Rapids,43.4271945,-96.1758598,1968160,Lyon,x,,19119,Iowa,
Rock Valley,43.2052594,-96.2950263,1968205,Sioux,x,,19167,Iowa,
Rockford,43.0521922,-92.9485301,1968070,Floyd,x,,19067,Iowa,
Rockwell,42.985244,-93.1918688,1968250,Cerro Gordo,x,,19033,Iowa,
Rockwell City,42.3952576,-94.6338671,1968295,Calhoun,x,,19025,Iowa,
Rodman,43.0285792,-94.531087,1968340,Palo Alton,x,,19147,Iowa,
Rodney,42.2055458,-95.9525106,1968385,Monona,x,,19133,Iowa,
Roland,42.1663746,-93.5018791,1968475,Story,x,,19169,Iowa,
Rolfe,42.8127501,-94.5269204,1968520,Pocahontas,x,,19151,Iowa,
Benton,40.7033242,-94.3582909,1905905,Ringgold,x,,19159,Iowa,
Rome,40.9847479,-91.6834982,1968565,Henry,x,,19087,Iowa,
Rose Hill,41.3219532,-92.4621318,1968700,Mahaska,x,,19123,Iowa,
Roseville,43.0101579,-92.81208,1968800,Floyd,x,,19067,Iowa,CDP
Rossie,43.0133076,-95.1886059,1968925,Clay,x,,19041,Iowa,
Rowan,42.740806,-93.5527076,1969015,Wright,x,,19197,Iowa,
Rowley,42.3699889,-91.8440621,1969060,Buchanan,x,,19019,Iowa,
Royal,43.0655294,-95.2838876,1969105,Clay,x,,19041,Iowa,
Rudd,43.1260815,-92.9057526,1969195,Floyd,x,,19067,Iowa,
Runnells,41.5111013,-93.3574318,1969240,Polk,x,,19153,Iowa,
Russell,40.9836551,-93.1982315,1969285,Lucas,x,,19117,Iowa,
Berkley,41.9449834,-94.1146804,1906040,Boone,x,,19015,Iowa,
Ruthven,43.1291322,-94.8991531,1969330,Palo Alton,x,,19147,Iowa,
Rutland,42.7591386,-94.297744,1969375,Humboldt,x,,19091,Iowa,
Ryan,42.3513791,-91.4815456,1969465,Delaware,x,,19055,Iowa,
Sabula,42.0711347,-90.1740169,1969510,Jackson,x,,19097,Iowa,
Sac City,42.4222033,-94.9897109,1969645,Sac,x,,19161,Iowa,
Sageville,42.5527782,-90.7090161,1969690,Dubuque,x,,19061,Iowa,
Salem,40.8528085,-91.6201612,1970230,Henry,x,,19087,Iowa,
Salix,42.3083253,-96.2878044,1970320,Woodbury,x,,19193,Iowa,
Sanborn,43.1816421,-95.6555674,1970410,O'Brien,x,,19141,Iowa,
Sandyville,41.3708263,-93.386322,1970590,Warren,x,,19181,Iowa,
Bernard,42.3122305,-90.8318003,1906085,Dubuque,x,,19061,Iowa,
Saylorville,41.6785996,-93.6296629,1970995,Polk,x,,19153,Iowa,CDP
Scarville,43.4693987,-93.6174391,1971040,Winnebago,x,,19189,Iowa,
Schaller,42.4997048,-95.2930523,1971085,Sac,x,,19161,Iowa,
Schleswig,42.1652658,-95.4369432,1971130,Crawford,x,,19047,Iowa,
Scranton,42.0224844,-94.5452524,1971310,Greene,x,,19073,Iowa,
Searsboro,41.5805534,-92.7035243,1971355,Poweshiek,x,,19157,Iowa,
Sergeant Bluff,42.4029802,-96.3588424,1971625,Woodbury,x,,19193,Iowa,
Sexton,43.0827432,-94.0891243,1971715,Kossuth,x,,19109,Iowa,CDP
Seymour,40.6822273,-93.1197708,1971760,Wayne,x,,19185,Iowa,
Shambaugh,40.6588798,-95.0319224,1971895,Page,x,,19145,Iowa,
Bertram,41.9497259,-91.5354538,1906175,Linn,x,,19113,Iowa,
Shannon City,40.9016575,-94.2632877,1971940,Ringgold,,,19159,Iowa,
Shannon City,40.9016575,-94.2632877,1971940,Union,x,x,19175,Iowa,
Sharpsburg,40.8024876,-94.6424676,1972075,Taylor,x,,19173,Iowa,
Sheffield,42.8944129,-93.2118688,1972210,Franklin,x,,19069,Iowa,
Shelby,41.5161017,-95.45028,1972300,Pottawattamie,,,19155,Iowa,
Shelby,41.5161017,-95.45028,1972300,Shelby,x,x,19165,Iowa,
Sheldahl,41.8635423,-93.6955061,1972345,Boone,,,19015,Iowa,
Sheldahl,41.8635423,-93.6955061,1972345,Polk,x,x,19153,Iowa,
Sheldahl,41.8635423,-93.6955061,1972345,Story,,,19169,Iowa,
Sheldon,43.1812107,-95.8569539,1972390,O'Brien,x,x,19141,Iowa,
Bettendorf,41.56085,-90.48344,1906355,Scott,x,,19163,Iowa,
Sheldon,43.1812107,-95.8569539,1972390,Sioux,,,19167,Iowa,
Shell Rock,42.710237,-92.5829563,1972435,Butler,x,,19023,Iowa,
Shellsburg,42.0945385,-91.8693231,1972480,Benton,x,,19011,Iowa,
Shenandoah,40.7667389,-95.3761506,1972525,Fremont,,,19071,Iowa,
Shenandoah,40.7667389,-95.3761506,1972525,Page,x,x,19145,Iowa,
Sherrill,42.6038868,-90.7845716,1972660,Dubuque,x,,19061,Iowa,
Shueyville,41.8505633,-91.6465645,1972840,Johnson,x,,19103,Iowa,
Sibley,43.3999861,-95.7516395,1972975,Osceola,x,,19143,Iowa,
Sidney,40.7483337,-95.6474959,1973065,Fremont,x,,19071,Iowa,
Sigourney,41.3333445,-92.2046255,1973110,Keokuk,x,,19107,Iowa,
Bevington,41.3605472,-93.7907776,1906490,Madison,x,x,19121,Iowa,
Silver City,41.1133311,-95.637226,1973155,Mills,x,,19129,Iowa,
Sioux Center,43.0797991,-96.1756935,1973290,Sioux,x,,19167,Iowa,
Sioux City,42.4999942,-96.4003069,1973335,Plymouth,,,19149,Iowa,
Sioux City,42.4999942,-96.4003069,1973335,Woodbury,x,x,19193,Iowa,
Sioux Rapids,42.8933093,-95.1511051,1973425,Buena Vista,x,,19021,Iowa,
Slater,41.8778194,-93.6821269,1973515,Story,x,,19169,Iowa,
Sloan,42.2337584,-96.2244905,1973605,Woodbury,x,,19193,Iowa,
Smithland,42.229157,-95.9308434,1973650,Woodbury,x,,19193,Iowa,
Soldier,41.9852663,-95.7794517,1973785,Monona,x,,19133,Iowa,
Solon,41.8072344,-91.4940604,1973875,Johnson,x,,19103,Iowa,
Bevington,41.3605472,-93.7907776,1906490,Warren,,,19181,Iowa,
Somers,42.3784454,-94.430297,1973920,Calhoun,x,,19025,Iowa,
South Amana,41.7761175,-91.9674013,1973965,Iowa,x,,19095,Iowa,CDP
South English,41.452232,-92.090456,1974055,Keokuk,x,,19107,Iowa,
Spencer,43.1450748,-95.144318,1974280,Clay,x,,19041,Iowa,
Spillville,43.2049718,-91.9509965,1974370,Winneshiek,x,,19191,Iowa,
Spirit Lake,43.4226192,-95.1022313,1974415,Dickinson,x,,19059,Iowa,
Spragueville,42.0725226,-90.4351311,1974460,Jackson,x,,19097,Iowa,
Spring Hill,41.4122722,-93.6509177,1974685,Warren,x,,19181,Iowa,
Springbrook,42.1641858,-90.4765187,1974505,Jackson,x,,19097,Iowa,
Springville,42.0594453,-91.4426703,1974775,Linn,x,,19113,Iowa,
Ainsworth,41.2875208,-91.5515505,1900730,Washington,x,,19183,Iowa,
Birmingham,40.8789129,-91.9471165,1906625,Van Buren,x,,19177,Iowa,
St. Ansgar,43.3784811,-92.9203887,1969735,Mitchell,x,,19131,Iowa,
St. Anthony,42.1222087,-93.194926,1969780,Marshall,x,,19127,Iowa,
St. Benedict,43.0380218,-94.0644012,1969825,Kossuth,x,,19109,Iowa,CDP
St. Charles,41.2883257,-93.8093887,1969915,Madison,x,,19121,Iowa,
St. Donatus,42.3608433,-90.5392951,1969960,Jackson,x,,19097,Iowa,
St. Joseph,42.9133025,-94.2271851,1970005,Kossuth,x,,19109,Iowa,CDP
St. Lucas,43.0665745,-91.9332498,1970050,Fayette,x,,19065,Iowa,
St. Marys,41.3089145,-93.7327191,1970095,Warren,x,,19181,Iowa,
St. Olaf,42.9285957,-91.3862484,1970140,Clayton,x,,19043,Iowa,
St. Paul,40.7696706,-91.5164208,1970185,Lee,x,,19111,Iowa,
Blairsburg,42.4814442,-93.6430922,1906760,Hamilton,x,,19079,Iowa,
Stacyville,43.4389912,-92.7822974,1974820,Mitchell,x,,19131,Iowa,
Stanhope,42.2888698,-93.7960607,1974910,Hamilton,x,,19079,Iowa,
Stanley,42.6427617,-91.8126663,1974955,Buchanan,x,x,19019,Iowa,
Stanley,42.6427617,-91.8126663,1974955,Fayette,,,19065,Iowa,
Stanton,40.9777689,-95.1016534,1975000,Montgomery,x,,19137,Iowa,
Stanwood,41.8930715,-91.1507132,1975045,Cedar,x,,19031,Iowa,
State Center,42.0166544,-93.1635365,1975135,Marshall,x,,19127,Iowa,
Steamboat Rock,42.4055374,-93.0724235,1975180,Hardin,x,,19083,Iowa,
Stone City,42.1128423,-91.3495198,1975540,Jones,x,,19105,Iowa,CDP
Stockport,40.8575265,-91.8351687,1975405,Van Buren,x,,19177,Iowa,
Blairstown,41.9086563,-92.0845119,1906805,Benton,x,,19011,Iowa,
Stockton,41.5910797,-90.8565882,1975450,Muscatine,x,,19139,Iowa,
Storm Lake,42.6430359,-95.2019399,1975630,Buena Vista,x,,19021,Iowa,
Story City,42.1871601,-93.5955532,1975675,Story,x,,19169,Iowa,
Stout,42.52637,-92.7118626,1975720,Grundy,x,,19075,Iowa,
Stratford,42.2713655,-93.9271721,1975810,Hamilton,x,x,19079,Iowa,
Stratford,42.2713655,-93.9271721,1975810,Webster,,,19187,Iowa,
Strawberry Point,42.6835955,-91.5340348,1975855,Clayton,x,,19043,Iowa,
Struble,42.8952663,-96.1953,1975945,Plymouth,x,,19149,Iowa,
Stuart,41.5034243,-94.3183715,1975990,Adair,,,19001,Iowa,
Stuart,41.5034243,-94.3183715,1975990,Guthrie,x,x,19077,Iowa,
Blakesburg,40.9614278,-92.6341184,1906850,Wapello,x,,19179,Iowa,
Sully,41.5783288,-92.8449164,1976035,Jasper,x,,19099,Iowa,
Sumner,42.8474801,-92.0915633,1976260,Bremer,x,x,19017,Iowa,
Sumner,42.8474801,-92.0915633,1976260,Fayette,,,19065,Iowa,
Sun Valley Lake,40.8533373,-94.0606029,1976415,Ringgold,x,,19159,Iowa,CDP
Superior,43.4322956,-94.9473346,1976440,Dickinson,x,,19059,Iowa,
Sutherland,42.9741434,-95.4975058,1976485,O'Brien,x,,19141,Iowa,
Swaledale,42.9771521,-93.314887,1976620,Cerro Gordo,x,,19033,Iowa,
Swan,41.4652689,-93.3113196,1976665,Marion,x,,19125,Iowa,
Swea City,43.384403,-94.3149681,1976755,Kossuth,x,,19109,Iowa,
Swisher,41.8458406,-91.693232,1976890,Johnson,x,,19103,Iowa,
Blanchard,40.5791617,-95.2216466,1906895,Page,x,,19145,Iowa,
Tabor,40.8983329,-95.6713891,1976935,Fremont,x,x,19071,Iowa,
Tabor,40.8983329,-95.6713891,1976935,Mills,,,19129,Iowa,
Tama,41.9627392,-92.576753,1977115,Tama,x,,19171,Iowa,
Templeton,41.9183824,-94.9430298,1977340,Carroll,x,,19027,Iowa,
Tennant,41.5936006,-95.4411127,1977430,Shelby,x,,19165,Iowa,
Terril,43.3057947,-94.9716565,1977520,Dickinson,x,,19059,Iowa,
Thayer,41.0280479,-94.0507827,1977565,Union,x,,19175,Iowa,
Thompson,43.3713445,-93.7735556,1977745,Winnebago,x,,19189,Iowa,
Thor,42.6880263,-94.0493982,1977790,Humboldt,x,,19091,Iowa,
Thornburg,41.4547292,-92.3357394,1977835,Keokuk,x,,19107,Iowa,
Blencoe,41.9305435,-96.0819587,1906940,Monona,x,,19133,Iowa,
Thornton,42.9444529,-93.3846691,1977880,Cerro Gordo,x,,19033,Iowa,
Thurman,40.8200005,-95.7477788,1977970,Fremont,x,,19071,Iowa,
Tiffin,41.7069149,-91.6632783,1978060,Johnson,x,,19103,Iowa,
Tingley,40.8527699,-94.1952307,1978195,Ringgold,x,,19159,Iowa,
Tipton,41.7697434,-91.1279349,1978285,Cedar,x,,19031,Iowa,
Titonka,43.236906,-94.0413443,1978330,Kossuth,x,,19109,Iowa,
Toeterville,43.4426122,-92.8908545,1978465,Mitchell,x,,19131,Iowa,CDP
Toledo,41.9972134,-92.5835266,1978510,Tama,x,,19171,Iowa,
Toronto,41.9050213,-90.8640346,1978600,Clinton,x,,19045,Iowa,
Traer,42.1936007,-92.4654688,1978735,Tama,x,,19171,Iowa,
Blockton,40.6155454,-94.4771826,1906985,Taylor,x,,19173,Iowa,
Treynor,41.2324965,-95.6130608,1978825,Pottawattamie,x,,19155,Iowa,
Tripoli,42.8080363,-92.2582341,1978915,Bremer,x,,19017,Iowa,
Truesdale,42.729146,-95.1827734,1979095,Buena Vista,x,,19021,Iowa,
Truro,41.2097152,-93.8466116,1979140,Madison,x,,19121,Iowa,
Turin,42.0194325,-95.9663995,1979185,Monona,x,,19133,Iowa,
Twin Lakes,42.4349344,-94.7070616,1979335,Calhoun,x,,19025,Iowa,CDP
Udell,40.7797502,-92.7421407,1979410,Appanoose,x,,19007,Iowa,
Underwood,41.3869388,-95.676674,1979500,Pottawattamie,x,,19155,Iowa,
Union,42.2455405,-93.0646468,1979545,Hardin,x,,19083,Iowa,
Unionville,40.8183488,-92.6954705,1979680,Appanoose,x,,19007,Iowa,
Bloomfield,40.7516884,-92.4149074,1907030,Davis,x,,19051,Iowa,
University Heights,41.6550163,-91.5568354,1979770,Johnson,x,,19103,Iowa,
University Park,41.2869513,-92.6185251,1979815,Mahaska,x,,19123,Iowa,
Urbana,42.2241596,-91.8743444,1979905,Benton,x,,19011,Iowa,
Urbandale,41.6266555,-93.7121656,1979950,Dallas,,,19049,Iowa,
Urbandale,41.6266555,-93.7121656,1979950,Polk,x,x,19153,Iowa,
Ute,42.0502666,-95.7063942,1979995,Monona,x,,19133,Iowa,
Vail,42.0594309,-95.2002723,1980130,Crawford,x,,19047,Iowa,
Valeria,41.7299883,-93.3252075,1980175,Jasper,x,,19099,Iowa,
Van Horne,42.0086088,-92.091016,1980400,Benton,x,,19011,Iowa,
Van Meter,41.5333223,-93.9543949,1980445,Dallas,x,,19049,Iowa,
Blue Grass,41.5089194,-90.7659767,1907075,Scott,x,,19163,Iowa,
Van Wert,40.8697209,-93.7929993,1980490,Decatur,x,,19053,Iowa,
Varina,42.6580327,-94.8977642,1980535,Pocahontas,x,,19151,Iowa,
Ventura,43.1291257,-93.4779849,1980580,Cerro Gordo,x,,19033,Iowa,
Victor,41.7316675,-92.2979615,1980805,Iowa,x,x,19095,Iowa,
Victor,41.7316675,-92.2979615,1980805,Poweshiek,,,19157,Iowa,
Villisca,40.9296034,-94.9766416,1980985,Montgomery,x,,19137,Iowa,
Vincent,42.5919143,-94.0202301,1981075,Webster,x,,19187,Iowa,
Vining,41.9901859,-92.3818567,1981120,Tama,x,,19171,Iowa,
Vinton,42.1646477,-92.0185651,1981210,Benton,x,,19011,Iowa,
Volga,42.8047058,-91.5409782,1981345,Clayton,x,,19043,Iowa,
Bode,42.8683035,-94.2896879,1907210,Humboldt,x,,19091,Iowa,
Wadena,42.84276,-91.6568201,1981570,Fayette,x,,19065,Iowa,
Wahpeton,43.366075,-95.1719411,1981615,Dickinson,x,,19059,Iowa,
Walcott,41.585543,-90.7743819,1981705,Muscatine,,,19139,Iowa,
Walcott,41.585543,-90.7743819,1981705,Scott,x,x,19163,Iowa,
Walford,41.8783375,-91.8346236,1981840,Benton,x,x,19011,Iowa,
Walford,41.8783375,-91.8346236,1981840,Linn,,,19113,Iowa,
Walker,42.2866572,-91.7807299,1981885,Linn,x,,19113,Iowa,
Wall Lake,42.2710952,-95.093047,1982020,Sac,x,,19161,Iowa,
Wallingford,43.3198193,-94.794901,1981975,Emmet,x,,19063,Iowa,
Walnut,41.4774899,-95.2219405,1982065,Pottawattamie,x,,19155,Iowa,